{
"type": "FeatureCollection",
"name": "pharmacies",
"crs": { "type": "name", "properties": { "name": "urn:ogc:def:crs:OGC:1.3:CRS84" } },
"features": [
{ "type": "Feature", "properties": { "ID": 158, "ADDRESS_OR_INTERSECTION": "2425 Bloor St W", "POSTAL_CODE": "M6S 4W4", "GC_LONGITUDE": -79.48345839, "GC_LATITUDE": 43.649192 }, "geometry": { "type": "Point", "coordinates": [ -79.48345839, 43.649192 ] } },
{ "type": "Feature", "properties": { "ID": 224, "ADDRESS_OR_INTERSECTION": "1012 Pape Ave", "POSTAL_CODE": "M4K 3V9", "GC_LONGITUDE": -79.34878295, "GC_LATITUDE": 43.68876541 }, "geometry": { "type": "Point", "coordinates": [ -79.34878295, 43.68876541 ] } },
{ "type": "Feature", "properties": { "ID": 604, "ADDRESS_OR_INTERSECTION": "3265 Bayview Ave", "POSTAL_CODE": "M2K 1G4", "GC_LONGITUDE": -79.39302338, "GC_LATITUDE": 43.79161337 }, "geometry": { "type": "Point", "coordinates": [ -79.39302338, 43.79161337 ] } },
{ "type": "Feature", "properties": { "ID": 1495, "ADDRESS_OR_INTERSECTION": "3003 Danforth Ave", "POSTAL_CODE": "M4C 1M9", "GC_LONGITUDE": -79.28869901, "GC_LATITUDE": 43.69064222 }, "geometry": { "type": "Point", "coordinates": [ -79.28869901, 43.69064222 ] } },
{ "type": "Feature", "properties": { "ID": 1750, "ADDRESS_OR_INTERSECTION": "5 The Market Pl", "POSTAL_CODE": "M4C 5M2", "GC_LONGITUDE": -79.29211246, "GC_LATITUDE": 43.69593208 }, "geometry": { "type": "Point", "coordinates": [ -79.29211246, 43.69593208 ] } },
{ "type": "Feature", "properties": { "ID": 1818, "ADDRESS_OR_INTERSECTION": "3401 Dufferin St", "POSTAL_CODE": "M6A 2T9", "GC_LONGITUDE": -79.45147044, "GC_LATITUDE": 43.72607903 }, "geometry": { "type": "Point", "coordinates": [ -79.45147044, 43.72607903 ] } },
{ "type": "Feature", "properties": { "ID": 1834, "ADDRESS_OR_INTERSECTION": "123 Edward St", "POSTAL_CODE": "M5G 1E2", "GC_LONGITUDE": -79.38680081, "GC_LATITUDE": 43.65563759 }, "geometry": { "type": "Point", "coordinates": [ -79.38680081, 43.65563759 ] } },
{ "type": "Feature", "properties": { "ID": 2279, "ADDRESS_OR_INTERSECTION": "1032 Pape Ave", "POSTAL_CODE": "M4K 3W2", "GC_LONGITUDE": -79.34917119000001, "GC_LATITUDE": 43.68955465 }, "geometry": { "type": "Point", "coordinates": [ -79.34917119, 43.68955465 ] } },
{ "type": "Feature", "properties": { "ID": 2683, "ADDRESS_OR_INTERSECTION": "154 Ossington Ave", "POSTAL_CODE": "M6J 2Z5", "GC_LONGITUDE": -79.42033521, "GC_LATITUDE": 43.6476748 }, "geometry": { "type": "Point", "coordinates": [ -79.42033521, 43.6476748 ] } },
{ "type": "Feature", "properties": { "ID": 3061, "ADDRESS_OR_INTERSECTION": "1584 Bathurst St", "POSTAL_CODE": "M5P 3H3", "GC_LONGITUDE": -79.42008307, "GC_LATITUDE": 43.68661983 }, "geometry": { "type": "Point", "coordinates": [ -79.42008307, 43.68661983 ] } },
{ "type": "Feature", "properties": { "ID": 3244, "ADDRESS_OR_INTERSECTION": "1488 Danforth Ave", "POSTAL_CODE": "M4J 1N4", "GC_LONGITUDE": -79.32573499, "GC_LATITUDE": 43.68312876 }, "geometry": { "type": "Point", "coordinates": [ -79.32573499, 43.68312876 ] } },
{ "type": "Feature", "properties": { "ID": 3285, "ADDRESS_OR_INTERSECTION": "811 Dundas St W", "POSTAL_CODE": "M6J 1V4", "GC_LONGITUDE": -79.40864991, "GC_LATITUDE": 43.65161786 }, "geometry": { "type": "Point", "coordinates": [ -79.40864991, 43.65161786 ] } },
{ "type": "Feature", "properties": { "ID": 3376, "ADDRESS_OR_INTERSECTION": "1115 LodestarRd", "POSTAL_CODE": "M3J 0G9", "GC_LONGITUDE": -79.466467, "GC_LATITUDE": 43.759236 }, "geometry": { "type": "Point", "coordinates": [ -79.466467, 43.759236 ] } },
{ "type": "Feature", "properties": { "ID": 3467, "ADDRESS_OR_INTERSECTION": "419 Donlands Ave", "POSTAL_CODE": "M4J 3S2", "GC_LONGITUDE": -79.34276269, "GC_LATITUDE": 43.69444909 }, "geometry": { "type": "Point", "coordinates": [ -79.34276269, 43.69444909 ] } },
{ "type": "Feature", "properties": { "ID": 3798, "ADDRESS_OR_INTERSECTION": "873 Jane St", "POSTAL_CODE": "M6N 4C4", "GC_LONGITUDE": -79.49441596, "GC_LATITUDE": 43.67723508 }, "geometry": { "type": "Point", "coordinates": [ -79.49441596, 43.67723508 ] } },
{ "type": "Feature", "properties": { "ID": 3905, "ADDRESS_OR_INTERSECTION": "1305 Lawrence Ave W", "POSTAL_CODE": "M6L 1A5", "GC_LONGITUDE": -79.47341308, "GC_LATITUDE": 43.70917554 }, "geometry": { "type": "Point", "coordinates": [ -79.47341308, 43.70917554 ] } },
{ "type": "Feature", "properties": { "ID": 4291, "ADDRESS_OR_INTERSECTION": "396 Royal York Rd", "POSTAL_CODE": "M8Y 2R5", "GC_LONGITUDE": -79.5000392, "GC_LATITUDE": 43.6193904 }, "geometry": { "type": "Point", "coordinates": [ -79.5000392, 43.6193904 ] } },
{ "type": "Feature", "properties": { "ID": 4440, "ADDRESS_OR_INTERSECTION": "255 Morningside Ave", "POSTAL_CODE": "M1E 3E6", "GC_LONGITUDE": -79.18490061, "GC_LATITUDE": 43.77012229 }, "geometry": { "type": "Point", "coordinates": [ -79.18490061, 43.77012229 ] } },
{ "type": "Feature", "properties": { "ID": 4457, "ADDRESS_OR_INTERSECTION": "901 Bay St", "POSTAL_CODE": "M5S 3K6", "GC_LONGITUDE": -79.38644797000001, "GC_LATITUDE": 43.66330534 }, "geometry": { "type": "Point", "coordinates": [ -79.38644797, 43.66330534 ] } },
{ "type": "Feature", "properties": { "ID": 4465, "ADDRESS_OR_INTERSECTION": "114 Cumberland St", "POSTAL_CODE": "M5R 1A6", "GC_LONGITUDE": -79.39164185, "GC_LATITUDE": 43.67029042 }, "geometry": { "type": "Point", "coordinates": [ -79.39164185, 43.67029042 ] } },
{ "type": "Feature", "properties": { "ID": 4580, "ADDRESS_OR_INTERSECTION": "208 Bloor St W", "POSTAL_CODE": "M5S 3B4", "GC_LONGITUDE": -79.395897, "GC_LATITUDE": 43.66869542 }, "geometry": { "type": "Point", "coordinates": [ -79.395897, 43.66869542 ] } },
{ "type": "Feature", "properties": { "ID": 5280, "ADDRESS_OR_INTERSECTION": "101-2221 Keele St", "POSTAL_CODE": "M6M 3Z5", "GC_LONGITUDE": -79.4755076, "GC_LATITUDE": 43.69896835 }, "geometry": { "type": "Point", "coordinates": [ -79.4755076, 43.69896835 ] } },
{ "type": "Feature", "properties": { "ID": 5512, "ADDRESS_OR_INTERSECTION": "264 Bloor St W", "POSTAL_CODE": "M5S 1V8", "GC_LONGITUDE": -79.400399, "GC_LATITUDE": 43.66762424 }, "geometry": { "type": "Point", "coordinates": [ -79.400399, 43.66762424 ] } },
{ "type": "Feature", "properties": { "ID": 7070, "ADDRESS_OR_INTERSECTION": "136 Orton Park Rd", "POSTAL_CODE": "M1G 3H1", "GC_LONGITUDE": -79.20911961, "GC_LATITUDE": 43.77171822 }, "geometry": { "type": "Point", "coordinates": [ -79.20911961, 43.77171822 ] } },
{ "type": "Feature", "properties": { "ID": 7104, "ADDRESS_OR_INTERSECTION": "360 Bloor St W", "POSTAL_CODE": "M5S 1X1", "GC_LONGITUDE": -79.40512321, "GC_LATITUDE": 43.66678742 }, "geometry": { "type": "Point", "coordinates": [ -79.40512321, 43.66678742 ] } },
{ "type": "Feature", "properties": { "ID": 7138, "ADDRESS_OR_INTERSECTION": "2091 Danforth Ave", "POSTAL_CODE": "M4C 1K1", "GC_LONGITUDE": -79.31232417, "GC_LATITUDE": 43.68555649 }, "geometry": { "type": "Point", "coordinates": [ -79.31232417, 43.68555649 ] } },
{ "type": "Feature", "properties": { "ID": 7179, "ADDRESS_OR_INTERSECTION": "45 Overlea Blvd", "POSTAL_CODE": "M4H 1C3", "GC_LONGITUDE": -79.3462589, "GC_LATITUDE": 43.70554671 }, "geometry": { "type": "Point", "coordinates": [ -79.3462589, 43.70554671 ] } },
{ "type": "Feature", "properties": { "ID": 8136, "ADDRESS_OR_INTERSECTION": "855 Kingston Rd", "POSTAL_CODE": "M4E 1R9", "GC_LONGITUDE": -79.29089162, "GC_LATITUDE": 43.680112 }, "geometry": { "type": "Point", "coordinates": [ -79.29089162, 43.680112 ] } },
{ "type": "Feature", "properties": { "ID": 8219, "ADDRESS_OR_INTERSECTION": "553 Sammon Ave", "POSTAL_CODE": "M4C 2E1", "GC_LONGITUDE": -79.3255938, "GC_LATITUDE": 43.68864309 }, "geometry": { "type": "Point", "coordinates": [ -79.3255938, 43.68864309 ] } },
{ "type": "Feature", "properties": { "ID": 8714, "ADDRESS_OR_INTERSECTION": "90 Eglinton Ave E", "POSTAL_CODE": "M4P 2Y3", "GC_LONGITUDE": -79.39590296, "GC_LATITUDE": 43.70762956 }, "geometry": { "type": "Point", "coordinates": [ -79.39590296, 43.70762956 ] } },
{ "type": "Feature", "properties": { "ID": 8722, "ADDRESS_OR_INTERSECTION": "3463 Yonge St", "POSTAL_CODE": "M4N 2N3", "GC_LONGITUDE": -79.4041714, "GC_LATITUDE": 43.73416878 }, "geometry": { "type": "Point", "coordinates": [ -79.4041714, 43.73416878 ] } },
{ "type": "Feature", "properties": { "ID": 8797, "ADDRESS_OR_INTERSECTION": "2901 Sheppard Ave E", "POSTAL_CODE": "M1T 3J3", "GC_LONGITUDE": -79.32209692000001, "GC_LATITUDE": 43.7750538 }, "geometry": { "type": "Point", "coordinates": [ -79.32209692, 43.7750538 ] } },
{ "type": "Feature", "properties": { "ID": 9118, "ADDRESS_OR_INTERSECTION": "725 Jane St", "POSTAL_CODE": "M6N 4B3", "GC_LONGITUDE": -79.49309142, "GC_LATITUDE": 43.67062645 }, "geometry": { "type": "Point", "coordinates": [ -79.49309142, 43.67062645 ] } },
{ "type": "Feature", "properties": { "ID": 9449, "ADDRESS_OR_INTERSECTION": "1849 Yonge St", "POSTAL_CODE": "M4S 1Y2", "GC_LONGITUDE": -79.3959269, "GC_LATITUDE": 43.69696036 }, "geometry": { "type": "Point", "coordinates": [ -79.3959269, 43.69696036 ] } },
{ "type": "Feature", "properties": { "ID": 9506, "ADDRESS_OR_INTERSECTION": "467 Parliament St", "POSTAL_CODE": "M5A 3A3", "GC_LONGITUDE": -79.36753708000001, "GC_LATITUDE": 43.66402746 }, "geometry": { "type": "Point", "coordinates": [ -79.36753708, 43.66402746 ] } },
{ "type": "Feature", "properties": { "ID": 9589, "ADDRESS_OR_INTERSECTION": "1601 Bayview Ave", "POSTAL_CODE": "M4G 3B5", "GC_LONGITUDE": -79.37508559, "GC_LATITUDE": 43.7063546 }, "geometry": { "type": "Point", "coordinates": [ -79.37508559, 43.7063546 ] } },
{ "type": "Feature", "properties": { "ID": 9852, "ADDRESS_OR_INTERSECTION": "942 St Clair Ave W", "POSTAL_CODE": "M6C 1C8", "GC_LONGITUDE": -79.43542666, "GC_LATITUDE": 43.67992917 }, "geometry": { "type": "Point", "coordinates": [ -79.43542666, 43.67992917 ] } },
{ "type": "Feature", "properties": { "ID": 10496, "ADDRESS_OR_INTERSECTION": "1507 Yonge St", "POSTAL_CODE": "M4T 1Z2", "GC_LONGITUDE": -79.39433154, "GC_LATITUDE": 43.6893876 }, "geometry": { "type": "Point", "coordinates": [ -79.39433154, 43.6893876 ] } },
{ "type": "Feature", "properties": { "ID": 12112, "ADDRESS_OR_INTERSECTION": "991 Dovercourt Rd", "POSTAL_CODE": "M6H 2X6", "GC_LONGITUDE": -79.43146765, "GC_LATITUDE": 43.66713518 }, "geometry": { "type": "Point", "coordinates": [ -79.43146765, 43.66713518 ] } },
{ "type": "Feature", "properties": { "ID": 12401, "ADDRESS_OR_INTERSECTION": "815 College St", "POSTAL_CODE": "M6G 1C9", "GC_LONGITUDE": -79.42199262, "GC_LATITUDE": 43.65430466 }, "geometry": { "type": "Point", "coordinates": [ -79.42199262, 43.65430466 ] } },
{ "type": "Feature", "properties": { "ID": 12856, "ADDRESS_OR_INTERSECTION": "1156 Danforth Ave", "POSTAL_CODE": "M4J 1M3", "GC_LONGITUDE": -79.3333876, "GC_LATITUDE": 43.6815478 }, "geometry": { "type": "Point", "coordinates": [ -79.3333876, 43.6815478 ] } },
{ "type": "Feature", "properties": { "ID": 13086, "ADDRESS_OR_INTERSECTION": "333 Symington Ave", "POSTAL_CODE": "M6P 3X1", "GC_LONGITUDE": -79.45123564, "GC_LATITUDE": 43.66646992 }, "geometry": { "type": "Point", "coordinates": [ -79.45123564, 43.66646992 ] } },
{ "type": "Feature", "properties": { "ID": 13672, "ADDRESS_OR_INTERSECTION": "1732 St Clair Ave W", "POSTAL_CODE": "M6N 1J1", "GC_LONGITUDE": -79.45993645, "GC_LATITUDE": 43.67443134 }, "geometry": { "type": "Point", "coordinates": [ -79.45993645, 43.67443134 ] } },
{ "type": "Feature", "properties": { "ID": 13771, "ADDRESS_OR_INTERSECTION": "1938 Bloor St W", "POSTAL_CODE": "M6P 3K8", "GC_LONGITUDE": -79.4667928, "GC_LATITUDE": 43.65344185 }, "geometry": { "type": "Point", "coordinates": [ -79.4667928, 43.65344185 ] } },
{ "type": "Feature", "properties": { "ID": 13813, "ADDRESS_OR_INTERSECTION": "412 Summerhill Ave", "POSTAL_CODE": "M4W 2E4", "GC_LONGITUDE": -79.37641209, "GC_LATITUDE": 43.68613184 }, "geometry": { "type": "Point", "coordinates": [ -79.37641209, 43.68613184 ] } },
{ "type": "Feature", "properties": { "ID": 14134, "ADDRESS_OR_INTERSECTION": "408 Roncesvalles Ave", "POSTAL_CODE": "M6R 2M9", "GC_LONGITUDE": -79.45129545, "GC_LATITUDE": 43.65134844 }, "geometry": { "type": "Point", "coordinates": [ -79.45129545, 43.65134844 ] } },
{ "type": "Feature", "properties": { "ID": 14324, "ADDRESS_OR_INTERSECTION": "1176 Queen St E", "POSTAL_CODE": "M4M 1L4", "GC_LONGITUDE": -79.33211163, "GC_LATITUDE": 43.66303199 }, "geometry": { "type": "Point", "coordinates": [ -79.33211163, 43.66303199 ] } },
{ "type": "Feature", "properties": { "ID": 14449, "ADDRESS_OR_INTERSECTION": "1935 Sheppard Ave W", "POSTAL_CODE": "M3L 1Y8", "GC_LONGITUDE": -79.51132544, "GC_LATITUDE": 43.73924434 }, "geometry": { "type": "Point", "coordinates": [ -79.51132544, 43.73924434 ] } },
{ "type": "Feature", "properties": { "ID": 14571, "ADDRESS_OR_INTERSECTION": "2550 Finch Ave W", "POSTAL_CODE": "M9M 2G3", "GC_LONGITUDE": -79.56037778, "GC_LATITUDE": 43.74903345 }, "geometry": { "type": "Point", "coordinates": [ -79.56037778, 43.74903345 ] } },
{ "type": "Feature", "properties": { "ID": 14795, "ADDRESS_OR_INTERSECTION": "2299 Dundas St W", "POSTAL_CODE": "M6R 1X7", "GC_LONGITUDE": -79.45265337, "GC_LATITUDE": 43.65555731 }, "geometry": { "type": "Point", "coordinates": [ -79.45265337, 43.65555731 ] } },
{ "type": "Feature", "properties": { "ID": 14811, "ADDRESS_OR_INTERSECTION": "1204 King St W", "POSTAL_CODE": "M6K 1G4", "GC_LONGITUDE": -79.42773618, "GC_LATITUDE": 43.63911021 }, "geometry": { "type": "Point", "coordinates": [ -79.42773618, 43.63911021 ] } },
{ "type": "Feature", "properties": { "ID": 15032, "ADDRESS_OR_INTERSECTION": "2891 Lake Shore Blvd W", "POSTAL_CODE": "M8V 1J1", "GC_LONGITUDE": -79.50390818, "GC_LATITUDE": 43.60081988 }, "geometry": { "type": "Point", "coordinates": [ -79.50390818, 43.60081988 ] } },
{ "type": "Feature", "properties": { "ID": 15461, "ADDRESS_OR_INTERSECTION": "324 Silverthorn Ave", "POSTAL_CODE": "M6N 3K6", "GC_LONGITUDE": -79.46346202, "GC_LATITUDE": 43.68261003 }, "geometry": { "type": "Point", "coordinates": [ -79.46346202, 43.68261003 ] } },
{ "type": "Feature", "properties": { "ID": 16113, "ADDRESS_OR_INTERSECTION": "900 Dufferin St", "POSTAL_CODE": "M6H 4A9", "GC_LONGITUDE": -79.43536233, "GC_LATITUDE": 43.65581706 }, "geometry": { "type": "Point", "coordinates": [ -79.43536233, 43.65581706 ] } },
{ "type": "Feature", "properties": { "ID": 16436, "ADDRESS_OR_INTERSECTION": "725 College St", "POSTAL_CODE": "M6G 1C5", "GC_LONGITUDE": -79.41909485, "GC_LATITUDE": 43.65428662 }, "geometry": { "type": "Point", "coordinates": [ -79.41909485, 43.65428662 ] } },
{ "type": "Feature", "properties": { "ID": 16444, "ADDRESS_OR_INTERSECTION": "152 Carlton St", "POSTAL_CODE": "M5A 2K1", "GC_LONGITUDE": -79.37456316, "GC_LATITUDE": 43.66308721 }, "geometry": { "type": "Point", "coordinates": [ -79.37456316, 43.66308721 ] } },
{ "type": "Feature", "properties": { "ID": 16568, "ADDRESS_OR_INTERSECTION": "374 Danforth Ave", "POSTAL_CODE": "M4K 1N8", "GC_LONGITUDE": -79.35220853, "GC_LATITUDE": 43.67775687 }, "geometry": { "type": "Point", "coordinates": [ -79.35220853, 43.67775687 ] } },
{ "type": "Feature", "properties": { "ID": 16774, "ADDRESS_OR_INTERSECTION": "751 Pape Ave", "POSTAL_CODE": "M4K 3T1", "GC_LONGITUDE": -79.3450739, "GC_LATITUDE": 43.68031545 }, "geometry": { "type": "Point", "coordinates": [ -79.3450739, 43.68031545 ] } },
{ "type": "Feature", "properties": { "ID": 16915, "ADDRESS_OR_INTERSECTION": "20 Bloor St E", "POSTAL_CODE": "M4W 3G7", "GC_LONGITUDE": -79.38544143, "GC_LATITUDE": 43.67076174 }, "geometry": { "type": "Point", "coordinates": [ -79.38544143, 43.67076174 ] } },
{ "type": "Feature", "properties": { "ID": 16964, "ADDRESS_OR_INTERSECTION": "600 Sherbourne St", "POSTAL_CODE": "M4X 1W4", "GC_LONGITUDE": -79.37687696, "GC_LATITUDE": 43.67163227 }, "geometry": { "type": "Point", "coordinates": [ -79.37687696, 43.67163227 ] } },
{ "type": "Feature", "properties": { "ID": 17194, "ADDRESS_OR_INTERSECTION": "698 Danforth Ave", "POSTAL_CODE": "M4J 1L1", "GC_LONGITUDE": -79.34384035, "GC_LATITUDE": 43.67940923 }, "geometry": { "type": "Point", "coordinates": [ -79.34384035, 43.67940923 ] } },
{ "type": "Feature", "properties": { "ID": 17533, "ADDRESS_OR_INTERSECTION": "311 Sherbourne St", "POSTAL_CODE": "M5A 3Y1", "GC_LONGITUDE": -79.37185447, "GC_LATITUDE": 43.66148071 }, "geometry": { "type": "Point", "coordinates": [ -79.37185447, 43.66148071 ] } },
{ "type": "Feature", "properties": { "ID": 18234, "ADDRESS_OR_INTERSECTION": "200 Bay St", "POSTAL_CODE": "M5J 2J3", "GC_LONGITUDE": -79.37975382, "GC_LATITUDE": 43.64630054 }, "geometry": { "type": "Point", "coordinates": [ -79.37975382, 43.64630054 ] } },
{ "type": "Feature", "properties": { "ID": 18507, "ADDRESS_OR_INTERSECTION": "607 Gerrard St E", "POSTAL_CODE": "M4M 1Y2", "GC_LONGITUDE": -79.35147468, "GC_LATITUDE": 43.66549638 }, "geometry": { "type": "Point", "coordinates": [ -79.35147468, 43.66549638 ] } },
{ "type": "Feature", "properties": { "ID": 19059, "ADDRESS_OR_INTERSECTION": "474 College St", "POSTAL_CODE": "M6G 1A4", "GC_LONGITUDE": -79.40933732000001, "GC_LATITUDE": 43.65640101 }, "geometry": { "type": "Point", "coordinates": [ -79.40933732, 43.65640101 ] } },
{ "type": "Feature", "properties": { "ID": 19810, "ADDRESS_OR_INTERSECTION": "1042 Eglinton Ave W", "POSTAL_CODE": "M6C 2C5", "GC_LONGITUDE": -79.43038174, "GC_LATITUDE": 43.70018864 }, "geometry": { "type": "Point", "coordinates": [ -79.43038174, 43.70018864 ] } },
{ "type": "Feature", "properties": { "ID": 20057, "ADDRESS_OR_INTERSECTION": "424 Dawes Rd", "POSTAL_CODE": "M4B 2E9", "GC_LONGITUDE": -79.29726222, "GC_LATITUDE": 43.70169359 }, "geometry": { "type": "Point", "coordinates": [ -79.29726222, 43.70169359 ] } },
{ "type": "Feature", "properties": { "ID": 20156, "ADDRESS_OR_INTERSECTION": "828 Dundas St W", "POSTAL_CODE": "M6J 1V3", "GC_LONGITUDE": -79.40939696, "GC_LATITUDE": 43.65179172 }, "geometry": { "type": "Point", "coordinates": [ -79.40939696, 43.65179172 ] } },
{ "type": "Feature", "properties": { "ID": 20693, "ADDRESS_OR_INTERSECTION": "294 Main St", "POSTAL_CODE": "M4C 4X5", "GC_LONGITUDE": -79.30197102, "GC_LATITUDE": 43.68766139 }, "geometry": { "type": "Point", "coordinates": [ -79.30197102, 43.68766139 ] } },
{ "type": "Feature", "properties": { "ID": 20768, "ADDRESS_OR_INTERSECTION": "1025 Gerrard St E", "POSTAL_CODE": "M4M 1Z6", "GC_LONGITUDE": -79.33717309, "GC_LATITUDE": 43.66870017 }, "geometry": { "type": "Point", "coordinates": [ -79.33717309, 43.66870017 ] } },
{ "type": "Feature", "properties": { "ID": 21246, "ADDRESS_OR_INTERSECTION": "819 Lansdowne Ave", "POSTAL_CODE": "M6H 3Z2", "GC_LONGITUDE": -79.44427739, "GC_LATITUDE": 43.6625169 }, "geometry": { "type": "Point", "coordinates": [ -79.44427739, 43.6625169 ] } },
{ "type": "Feature", "properties": { "ID": 21329, "ADDRESS_OR_INTERSECTION": "800 Bathurst St", "POSTAL_CODE": "M5R 3G1", "GC_LONGITUDE": -79.41166101, "GC_LATITUDE": 43.6655524 }, "geometry": { "type": "Point", "coordinates": [ -79.41166101, 43.6655524 ] } },
{ "type": "Feature", "properties": { "ID": 21931, "ADDRESS_OR_INTERSECTION": "2333 Dundas St W", "POSTAL_CODE": "M6R 3A6", "GC_LONGITUDE": -79.45264519, "GC_LATITUDE": 43.65589555 }, "geometry": { "type": "Point", "coordinates": [ -79.45264519, 43.65589555 ] } },
{ "type": "Feature", "properties": { "ID": 22335, "ADDRESS_OR_INTERSECTION": "238 Danforth Ave", "POSTAL_CODE": "M4K 1N4", "GC_LONGITUDE": -79.35540857, "GC_LATITUDE": 43.67714828 }, "geometry": { "type": "Point", "coordinates": [ -79.35540857, 43.67714828 ] } },
{ "type": "Feature", "properties": { "ID": 22509, "ADDRESS_OR_INTERSECTION": "896 St Clair Ave W", "POSTAL_CODE": "M6C 1C5", "GC_LONGITUDE": -79.43322324, "GC_LATITUDE": 43.68040039 }, "geometry": { "type": "Point", "coordinates": [ -79.43322324, 43.68040039 ] } },
{ "type": "Feature", "properties": { "ID": 22830, "ADDRESS_OR_INTERSECTION": "17 Leslie St", "POSTAL_CODE": "M4M 3H9", "GC_LONGITUDE": -79.3289992, "GC_LATITUDE": 43.66090854 }, "geometry": { "type": "Point", "coordinates": [ -79.3289992, 43.66090854 ] } },
{ "type": "Feature", "properties": { "ID": 22939, "ADDRESS_OR_INTERSECTION": "2262 Bloor St W", "POSTAL_CODE": "M6S 1N9", "GC_LONGITUDE": -79.47804339, "GC_LATITUDE": 43.65098276 }, "geometry": { "type": "Point", "coordinates": [ -79.47804339, 43.65098276 ] } },
{ "type": "Feature", "properties": { "ID": 22988, "ADDRESS_OR_INTERSECTION": "1485 Gerrard St E", "POSTAL_CODE": "M4L 2A4", "GC_LONGITUDE": -79.32006106, "GC_LATITUDE": 43.67245472 }, "geometry": { "type": "Point", "coordinates": [ -79.32006106, 43.67245472 ] } },
{ "type": "Feature", "properties": { "ID": 23010, "ADDRESS_OR_INTERSECTION": "126 Lower Sherbourne St", "POSTAL_CODE": "M5A 4J4", "GC_LONGITUDE": -79.36764337, "GC_LATITUDE": 43.64936891 }, "geometry": { "type": "Point", "coordinates": [ -79.36764337, 43.64936891 ] } },
{ "type": "Feature", "properties": { "ID": 23465, "ADDRESS_OR_INTERSECTION": "1630 Danforth Ave", "POSTAL_CODE": "M4C 1H6", "GC_LONGITUDE": -79.3222686, "GC_LATITUDE": 43.68396558 }, "geometry": { "type": "Point", "coordinates": [ -79.3222686, 43.68396558 ] } },
{ "type": "Feature", "properties": { "ID": 24091, "ADDRESS_OR_INTERSECTION": "1180 Victoria Park Ave", "POSTAL_CODE": "M4B 2K4", "GC_LONGITUDE": -79.29649557, "GC_LATITUDE": 43.70929846 }, "geometry": { "type": "Point", "coordinates": [ -79.29649557, 43.70929846 ] } },
{ "type": "Feature", "properties": { "ID": 24174, "ADDRESS_OR_INTERSECTION": "825 Don Mills Rd", "POSTAL_CODE": "M3C 1V4", "GC_LONGITUDE": -79.3389656, "GC_LATITUDE": 43.72201526 }, "geometry": { "type": "Point", "coordinates": [ -79.3389656, 43.72201526 ] } },
{ "type": "Feature", "properties": { "ID": 24257, "ADDRESS_OR_INTERSECTION": "302 Spadina Ave", "POSTAL_CODE": "M5T 2E7", "GC_LONGITUDE": -79.39859335, "GC_LATITUDE": 43.65335009 }, "geometry": { "type": "Point", "coordinates": [ -79.39859335, 43.65335009 ] } },
{ "type": "Feature", "properties": { "ID": 24356, "ADDRESS_OR_INTERSECTION": "855 Broadview Ave", "POSTAL_CODE": "M4K 2P9", "GC_LONGITUDE": -79.35785967, "GC_LATITUDE": 43.67960378 }, "geometry": { "type": "Point", "coordinates": [ -79.35785967, 43.67960378 ] } },
{ "type": "Feature", "properties": { "ID": 24372, "ADDRESS_OR_INTERSECTION": "402 Parliament St", "POSTAL_CODE": "M5A 2Z7", "GC_LONGITUDE": -79.36726559, "GC_LATITUDE": 43.66176897 }, "geometry": { "type": "Point", "coordinates": [ -79.36726559, 43.66176897 ] } },
{ "type": "Feature", "properties": { "ID": 24810, "ADDRESS_OR_INTERSECTION": "491 Lawrence Ave W", "POSTAL_CODE": "M5M 1C7", "GC_LONGITUDE": -79.42888804, "GC_LATITUDE": 43.71914106 }, "geometry": { "type": "Point", "coordinates": [ -79.42888804, 43.71914106 ] } },
{ "type": "Feature", "properties": { "ID": 24851, "ADDRESS_OR_INTERSECTION": "728 Bloor St W", "POSTAL_CODE": "M6G 1L4", "GC_LONGITUDE": -79.41820429000001, "GC_LATITUDE": 43.66379266 }, "geometry": { "type": "Point", "coordinates": [ -79.41820429, 43.66379266 ] } },
{ "type": "Feature", "properties": { "ID": 24869, "ADDRESS_OR_INTERSECTION": "1568 Queen St E", "POSTAL_CODE": "M4L 1E9", "GC_LONGITUDE": -79.31881296, "GC_LATITUDE": 43.66608865 }, "geometry": { "type": "Point", "coordinates": [ -79.31881296, 43.66608865 ] } },
{ "type": "Feature", "properties": { "ID": 25338, "ADDRESS_OR_INTERSECTION": "1473 Danforth Ave", "POSTAL_CODE": "M4J 1N5", "GC_LONGITUDE": -79.32595404, "GC_LATITUDE": 43.68260222 }, "geometry": { "type": "Point", "coordinates": [ -79.32595404, 43.68260222 ] } },
{ "type": "Feature", "properties": { "ID": 25510, "ADDRESS_OR_INTERSECTION": "550 Eglinton Ave W", "POSTAL_CODE": "M5N 1B6", "GC_LONGITUDE": -79.41534458, "GC_LATITUDE": 43.70344778 }, "geometry": { "type": "Point", "coordinates": [ -79.41534458, 43.70344778 ] } },
{ "type": "Feature", "properties": { "ID": 25791, "ADDRESS_OR_INTERSECTION": "555 University Ave", "POSTAL_CODE": "M5G 1X8", "GC_LONGITUDE": -79.38743746, "GC_LATITUDE": 43.65737215 }, "geometry": { "type": "Point", "coordinates": [ -79.38743746, 43.65737215 ] } },
{ "type": "Feature", "properties": { "ID": 25833, "ADDRESS_OR_INTERSECTION": "759 Mount Pleasant Rd", "POSTAL_CODE": "M4S 2N4", "GC_LONGITUDE": -79.38948194, "GC_LATITUDE": 43.70778417 }, "geometry": { "type": "Point", "coordinates": [ -79.38948194, 43.70778417 ] } },
{ "type": "Feature", "properties": { "ID": 25957, "ADDRESS_OR_INTERSECTION": "2494 Danforth Ave", "POSTAL_CODE": "M4C 1K9", "GC_LONGITUDE": -79.30372427, "GC_LATITUDE": 43.68803796 }, "geometry": { "type": "Point", "coordinates": [ -79.30372427, 43.68803796 ] } },
{ "type": "Feature", "properties": { "ID": 26021, "ADDRESS_OR_INTERSECTION": "970 Queen St E", "POSTAL_CODE": "M4M 1J8", "GC_LONGITUDE": -79.34047701, "GC_LATITUDE": 43.66124104 }, "geometry": { "type": "Point", "coordinates": [ -79.34047701, 43.66124104 ] } },
{ "type": "Feature", "properties": { "ID": 26120, "ADDRESS_OR_INTERSECTION": "795 Eglinton Ave E", "POSTAL_CODE": "M4G 4E4", "GC_LONGITUDE": -79.36618805000001, "GC_LATITUDE": 43.71301125 }, "geometry": { "type": "Point", "coordinates": [ -79.36618805, 43.71301125 ] } },
{ "type": "Feature", "properties": { "ID": 26799, "ADDRESS_OR_INTERSECTION": "1460 Queen St W", "POSTAL_CODE": "M6K 1M2", "GC_LONGITUDE": -79.43642673, "GC_LATITUDE": 43.64090438 }, "geometry": { "type": "Point", "coordinates": [ -79.43642673, 43.64090438 ] } },
{ "type": "Feature", "properties": { "ID": 26807, "ADDRESS_OR_INTERSECTION": "465 Yonge St", "POSTAL_CODE": "M4Y 1X4", "GC_LONGITUDE": -79.38302867, "GC_LATITUDE": 43.66182269 }, "geometry": { "type": "Point", "coordinates": [ -79.38302867, 43.66182269 ] } },
{ "type": "Feature", "properties": { "ID": 27508, "ADDRESS_OR_INTERSECTION": "1500 Avenue Rd", "POSTAL_CODE": "M5M 3X2", "GC_LONGITUDE": -79.41630278, "GC_LATITUDE": 43.72268547 }, "geometry": { "type": "Point", "coordinates": [ -79.41630278, 43.72268547 ] } },
{ "type": "Feature", "properties": { "ID": 27532, "ADDRESS_OR_INTERSECTION": "399 Bathurst St", "POSTAL_CODE": "M5T 2S8", "GC_LONGITUDE": -79.40568848, "GC_LATITUDE": 43.65309479 }, "geometry": { "type": "Point", "coordinates": [ -79.40568848, 43.65309479 ] } },
{ "type": "Feature", "properties": { "ID": 27692, "ADDRESS_OR_INTERSECTION": "61 Queen St E", "POSTAL_CODE": "Toronto", "GC_LONGITUDE": -79.62054, "GC_LATITUDE": 43.685615 }, "geometry": { "type": "Point", "coordinates": [ -79.62054, 43.685615 ] } },
{ "type": "Feature", "properties": { "ID": 28060, "ADDRESS_OR_INTERSECTION": "1021 Kingston Rd", "POSTAL_CODE": "M4E 1T5", "GC_LONGITUDE": -79.28476285000001, "GC_LATITUDE": 43.68063247 }, "geometry": { "type": "Point", "coordinates": [ -79.28476285, 43.68063247 ] } },
{ "type": "Feature", "properties": { "ID": 28236, "ADDRESS_OR_INTERSECTION": "959 Broadview Ave", "POSTAL_CODE": "M4K 2R5", "GC_LONGITUDE": -79.35702569, "GC_LATITUDE": 43.682707 }, "geometry": { "type": "Point", "coordinates": [ -79.35702569, 43.682707 ] } },
{ "type": "Feature", "properties": { "ID": 28468, "ADDRESS_OR_INTERSECTION": "799 Bloor St W", "POSTAL_CODE": "M6G 1L8", "GC_LONGITUDE": -79.42134953, "GC_LATITUDE": 43.66271647 }, "geometry": { "type": "Point", "coordinates": [ -79.42134953, 43.66271647 ] } },
{ "type": "Feature", "properties": { "ID": 28566, "ADDRESS_OR_INTERSECTION": "360 College St", "POSTAL_CODE": "M5T 1S6", "GC_LONGITUDE": -79.40444693000001, "GC_LATITUDE": 43.65737885 }, "geometry": { "type": "Point", "coordinates": [ -79.40444693, 43.65737885 ] } },
{ "type": "Feature", "properties": { "ID": 28596, "ADDRESS_OR_INTERSECTION": "2238 Dundas St W", "POSTAL_CODE": "M6R 3A9", "GC_LONGITUDE": -79.45149942, "GC_LATITUDE": 43.65438507 }, "geometry": { "type": "Point", "coordinates": [ -79.45149942, 43.65438507 ] } },
{ "type": "Feature", "properties": { "ID": 28900, "ADDRESS_OR_INTERSECTION": "260 Spadina Ave", "POSTAL_CODE": "M5T 2E4", "GC_LONGITUDE": -79.39826307, "GC_LATITUDE": 43.65192314 }, "geometry": { "type": "Point", "coordinates": [ -79.39826307, 43.65192314 ] } },
{ "type": "Feature", "properties": { "ID": 29356, "ADDRESS_OR_INTERSECTION": "340 College St", "POSTAL_CODE": "M5T 3A9", "GC_LONGITUDE": -79.40346391, "GC_LATITUDE": 43.65758149 }, "geometry": { "type": "Point", "coordinates": [ -79.40346391, 43.65758149 ] } },
{ "type": "Feature", "properties": { "ID": 29468, "ADDRESS_OR_INTERSECTION": "29 Roncesvalles Ave", "POSTAL_CODE": "M6R 2K4", "GC_LONGITUDE": -79.44633682, "GC_LATITUDE": 43.63995862 }, "geometry": { "type": "Point", "coordinates": [ -79.44633682, 43.63995862 ] } },
{ "type": "Feature", "properties": { "ID": 29732, "ADDRESS_OR_INTERSECTION": "1774 Eglinton Ave W", "POSTAL_CODE": "M6E 2H6", "GC_LONGITUDE": -79.44864098, "GC_LATITUDE": 43.69627356 }, "geometry": { "type": "Point", "coordinates": [ -79.44864098, 43.69627356 ] } },
{ "type": "Feature", "properties": { "ID": 29924, "ADDRESS_OR_INTERSECTION": "585 University Ave", "POSTAL_CODE": "M5G 2N2", "GC_LONGITUDE": -79.38914432, "GC_LATITUDE": 43.65816349 }, "geometry": { "type": "Point", "coordinates": [ -79.38914432, 43.65816349 ] } },
{ "type": "Feature", "properties": { "ID": 29988, "ADDRESS_OR_INTERSECTION": "431 King St E", "POSTAL_CODE": "M5A 1L5", "GC_LONGITUDE": -79.36157602, "GC_LATITUDE": 43.65352981 }, "geometry": { "type": "Point", "coordinates": [ -79.36157602, 43.65352981 ] } },
{ "type": "Feature", "properties": { "ID": 30076, "ADDRESS_OR_INTERSECTION": "2075 Bayview Ave      ", "POSTAL_CODE": "M4N 3M5", "GC_LONGITUDE": -79.37787537, "GC_LATITUDE": 43.72193765 }, "geometry": { "type": "Point", "coordinates": [ -79.37787537, 43.72193765 ] } },
{ "type": "Feature", "properties": { "ID": 30124, "ADDRESS_OR_INTERSECTION": "567 Bathurst St", "POSTAL_CODE": "M5S 2P8", "GC_LONGITUDE": -79.40825712, "GC_LATITUDE": 43.65844302 }, "geometry": { "type": "Point", "coordinates": [ -79.40825712, 43.65844302 ] } },
{ "type": "Feature", "properties": { "ID": 30164, "ADDRESS_OR_INTERSECTION": "608 Sherbourne St", "POSTAL_CODE": "M4X 1X6", "GC_LONGITUDE": -79.37689723, "GC_LATITUDE": 43.67201746 }, "geometry": { "type": "Point", "coordinates": [ -79.37689723, 43.67201746 ] } },
{ "type": "Feature", "properties": { "ID": 30268, "ADDRESS_OR_INTERSECTION": "2077 Weston Rd", "POSTAL_CODE": "M9N 1X7", "GC_LONGITUDE": -79.52244097000001, "GC_LATITUDE": 43.70215694 }, "geometry": { "type": "Point", "coordinates": [ -79.52244097, 43.70215694 ] } },
{ "type": "Feature", "properties": { "ID": 30428, "ADDRESS_OR_INTERSECTION": "1751 Eglinton Ave W", "POSTAL_CODE": "M6E 2H7", "GC_LONGITUDE": -79.4478503, "GC_LATITUDE": 43.69601582 }, "geometry": { "type": "Point", "coordinates": [ -79.4478503, 43.69601582 ] } },
{ "type": "Feature", "properties": { "ID": 30476, "ADDRESS_OR_INTERSECTION": "515 St. Clair Ave W", "POSTAL_CODE": "M6C 1A1", "GC_LONGITUDE": -79.41878418, "GC_LATITUDE": 43.68278646 }, "geometry": { "type": "Point", "coordinates": [ -79.41878418, 43.68278646 ] } },
{ "type": "Feature", "properties": { "ID": 30596, "ADDRESS_OR_INTERSECTION": "1439 King St W", "POSTAL_CODE": "M6K 1H9", "GC_LONGITUDE": -79.43668259, "GC_LATITUDE": 43.6368405 }, "geometry": { "type": "Point", "coordinates": [ -79.43668259, 43.6368405 ] } },
{ "type": "Feature", "properties": { "ID": 30932, "ADDRESS_OR_INTERSECTION": "1560 Yonge St", "POSTAL_CODE": "M4T 2S9", "GC_LONGITUDE": -79.39513015, "GC_LATITUDE": 43.68968694 }, "geometry": { "type": "Point", "coordinates": [ -79.39513015, 43.68968694 ] } },
{ "type": "Feature", "properties": { "ID": 31276, "ADDRESS_OR_INTERSECTION": "510 Trethewey Dr", "POSTAL_CODE": "M6M 4C2", "GC_LONGITUDE": -79.48776089, "GC_LATITUDE": 43.69558062 }, "geometry": { "type": "Point", "coordinates": [ -79.48776089, 43.69558062 ] } },
{ "type": "Feature", "properties": { "ID": 31420, "ADDRESS_OR_INTERSECTION": "673 College St", "POSTAL_CODE": "M6G 1B9", "GC_LONGITUDE": -79.41712685, "GC_LATITUDE": 43.65500725 }, "geometry": { "type": "Point", "coordinates": [ -79.41712685, 43.65500725 ] } },
{ "type": "Feature", "properties": { "ID": 31468, "ADDRESS_OR_INTERSECTION": "1285 Gerrard St E", "POSTAL_CODE": "M4L 1Y5", "GC_LONGITUDE": -79.32820107000001, "GC_LATITUDE": 43.67075335 }, "geometry": { "type": "Point", "coordinates": [ -79.32820107, 43.67075335 ] } },
{ "type": "Feature", "properties": { "ID": 31620, "ADDRESS_OR_INTERSECTION": "547 St. Clair Ave W", "POSTAL_CODE": "M6C 1A3", "GC_LONGITUDE": -79.4206124, "GC_LATITUDE": 43.68243378 }, "geometry": { "type": "Point", "coordinates": [ -79.4206124, 43.68243378 ] } },
{ "type": "Feature", "properties": { "ID": 31988, "ADDRESS_OR_INTERSECTION": "842 Gerrard St E", "POSTAL_CODE": "M4M 1Y7", "GC_LONGITUDE": -79.3433066, "GC_LATITUDE": 43.66781519 }, "geometry": { "type": "Point", "coordinates": [ -79.3433066, 43.66781519 ] } },
{ "type": "Feature", "properties": { "ID": 32452, "ADDRESS_OR_INTERSECTION": "658 Danforth Ave", "POSTAL_CODE": "M4J 5B9", "GC_LONGITUDE": -79.34464974, "GC_LATITUDE": 43.67921235 }, "geometry": { "type": "Point", "coordinates": [ -79.34464974, 43.67921235 ] } },
{ "type": "Feature", "properties": { "ID": 32564, "ADDRESS_OR_INTERSECTION": "856 Eglinton Ave W", "POSTAL_CODE": "M6C 2B6", "GC_LONGITUDE": -79.42603681, "GC_LATITUDE": 43.70112943 }, "geometry": { "type": "Point", "coordinates": [ -79.42603681, 43.70112943 ] } },
{ "type": "Feature", "properties": { "ID": 32748, "ADDRESS_OR_INTERSECTION": "19 Davenport Rd", "POSTAL_CODE": "M5R 1J3", "GC_LONGITUDE": -79.389032, "GC_LATITUDE": 43.672761 }, "geometry": { "type": "Point", "coordinates": [ -79.389032, 43.672761 ] } },
{ "type": "Feature", "properties": { "ID": 32756, "ADDRESS_OR_INTERSECTION": "985 Woodbine Ave", "POSTAL_CODE": "M4C 4B8", "GC_LONGITUDE": -79.31250395000001, "GC_LATITUDE": 43.68636778 }, "geometry": { "type": "Point", "coordinates": [ -79.31250395, 43.68636778 ] } },
{ "type": "Feature", "properties": { "ID": 32788, "ADDRESS_OR_INTERSECTION": "650 Dupont St", "POSTAL_CODE": "M6G 4B1", "GC_LONGITUDE": -79.42100236, "GC_LATITUDE": 43.67214864 }, "geometry": { "type": "Point", "coordinates": [ -79.42100236, 43.67214864 ] } },
{ "type": "Feature", "properties": { "ID": 32804, "ADDRESS_OR_INTERSECTION": "351 Christie St", "POSTAL_CODE": "M6G 3C2", "GC_LONGITUDE": -79.42116976, "GC_LATITUDE": 43.67338083 }, "geometry": { "type": "Point", "coordinates": [ -79.42116976, 43.67338083 ] } },
{ "type": "Feature", "properties": { "ID": 32972, "ADDRESS_OR_INTERSECTION": "610 University Ave", "POSTAL_CODE": "M5G 2M9", "GC_LONGITUDE": -79.39040828, "GC_LATITUDE": 43.65812981 }, "geometry": { "type": "Point", "coordinates": [ -79.39040828, 43.65812981 ] } },
{ "type": "Feature", "properties": { "ID": 33284, "ADDRESS_OR_INTERSECTION": "140 The Esplanade", "POSTAL_CODE": "M5A 4P5", "GC_LONGITUDE": -79.37025666, "GC_LATITUDE": 43.64855702 }, "geometry": { "type": "Point", "coordinates": [ -79.37025666, 43.64855702 ] } },
{ "type": "Feature", "properties": { "ID": 33308, "ADDRESS_OR_INTERSECTION": "2280 Dundas St W", "POSTAL_CODE": "M6R 1X4", "GC_LONGITUDE": -79.45054564, "GC_LATITUDE": 43.65482646 }, "geometry": { "type": "Point", "coordinates": [ -79.45054564, 43.65482646 ] } },
{ "type": "Feature", "properties": { "ID": 33444, "ADDRESS_OR_INTERSECTION": "1209 King St W", "POSTAL_CODE": "M6K 1G2", "GC_LONGITUDE": -79.42683299, "GC_LATITUDE": 43.63886513 }, "geometry": { "type": "Point", "coordinates": [ -79.42683299, 43.63886513 ] } },
{ "type": "Feature", "properties": { "ID": 33596, "ADDRESS_OR_INTERSECTION": "181 Bay St", "POSTAL_CODE": "M5J 2T3", "GC_LONGITUDE": -79.37937378, "GC_LATITUDE": 43.64722301 }, "geometry": { "type": "Point", "coordinates": [ -79.37937378, 43.64722301 ] } },
{ "type": "Feature", "properties": { "ID": 33612, "ADDRESS_OR_INTERSECTION": "936 Bloor St W", "POSTAL_CODE": "M6H 1L4", "GC_LONGITUDE": -79.42773669, "GC_LATITUDE": 43.66176382 }, "geometry": { "type": "Point", "coordinates": [ -79.42773669, 43.66176382 ] } },
{ "type": "Feature", "properties": { "ID": 33628, "ADDRESS_OR_INTERSECTION": "1218 King St W", "POSTAL_CODE": "M6K 1G4", "GC_LONGITUDE": -79.42815344, "GC_LATITUDE": 43.6390209 }, "geometry": { "type": "Point", "coordinates": [ -79.42815344, 43.6390209 ] } },
{ "type": "Feature", "properties": { "ID": 33684, "ADDRESS_OR_INTERSECTION": "525 Dundas St W", "POSTAL_CODE": "M5T 1H4", "GC_LONGITUDE": -79.39896298, "GC_LATITUDE": 43.65249189 }, "geometry": { "type": "Point", "coordinates": [ -79.39896298, 43.65249189 ] } },
{ "type": "Feature", "properties": { "ID": 33844, "ADDRESS_OR_INTERSECTION": "2136  Queen St E", "POSTAL_CODE": "M4E 1E3", "GC_LONGITUDE": -79.2936712, "GC_LATITUDE": 43.67159522 }, "geometry": { "type": "Point", "coordinates": [ -79.2936712, 43.67159522 ] } },
{ "type": "Feature", "properties": { "ID": 33964, "ADDRESS_OR_INTERSECTION": "30 The Queensway", "POSTAL_CODE": "M6R 1B5", "GC_LONGITUDE": -79.450101, "GC_LATITUDE": 43.63935849 }, "geometry": { "type": "Point", "coordinates": [ -79.450101, 43.63935849 ] } },
{ "type": "Feature", "properties": { "ID": 34284, "ADDRESS_OR_INTERSECTION": "2388 Bloor St W", "POSTAL_CODE": "M6S 1P5", "GC_LONGITUDE": -79.48255095, "GC_LATITUDE": 43.65002283 }, "geometry": { "type": "Point", "coordinates": [ -79.48255095, 43.65002283 ] } },
{ "type": "Feature", "properties": { "ID": 34492, "ADDRESS_OR_INTERSECTION": "225 Wellesley St. E.", "POSTAL_CODE": "M4X 1X8", "GC_LONGITUDE": -79.37273841, "GC_LATITUDE": 43.66732467 }, "geometry": { "type": "Point", "coordinates": [ -79.37273841, 43.66732467 ] } },
{ "type": "Feature", "properties": { "ID": 34524, "ADDRESS_OR_INTERSECTION": "1235 Bay St", "POSTAL_CODE": "M5R 3K4", "GC_LONGITUDE": -79.38964265, "GC_LATITUDE": 43.67088775 }, "geometry": { "type": "Point", "coordinates": [ -79.38964265, 43.67088775 ] } },
{ "type": "Feature", "properties": { "ID": 34580, "ADDRESS_OR_INTERSECTION": "240 Wellesley St E", "POSTAL_CODE": "M4X 1G5", "GC_LONGITUDE": -79.37175537, "GC_LATITUDE": 43.66806791 }, "geometry": { "type": "Point", "coordinates": [ -79.37175537, 43.66806791 ] } },
{ "type": "Feature", "properties": { "ID": 34644, "ADDRESS_OR_INTERSECTION": "1649 Dufferin St", "POSTAL_CODE": "M6H 3L9", "GC_LONGITUDE": -79.44250139, "GC_LATITUDE": 43.67730544 }, "geometry": { "type": "Point", "coordinates": [ -79.44250139, 43.67730544 ] } },
{ "type": "Feature", "properties": { "ID": 34844, "ADDRESS_OR_INTERSECTION": "811a Queen St E", "POSTAL_CODE": "M4M 1H8", "GC_LONGITUDE": -79.34492902, "GC_LATITUDE": 43.65960552 }, "geometry": { "type": "Point", "coordinates": [ -79.34492902, 43.65960552 ] } },
{ "type": "Feature", "properties": { "ID": 34852, "ADDRESS_OR_INTERSECTION": "2345 Yonge St", "POSTAL_CODE": "M4P 1E4", "GC_LONGITUDE": -79.39793609, "GC_LATITUDE": 43.70895956 }, "geometry": { "type": "Point", "coordinates": [ -79.39793609, 43.70895956 ] } },
{ "type": "Feature", "properties": { "ID": 35164, "ADDRESS_OR_INTERSECTION": "11 Redway Rd", "POSTAL_CODE": "M4H 1P6", "GC_LONGITUDE": -79.36015997, "GC_LATITUDE": 43.69997345 }, "geometry": { "type": "Point", "coordinates": [ -79.36015997, 43.69997345 ] } },
{ "type": "Feature", "properties": { "ID": 35292, "ADDRESS_OR_INTERSECTION": "6220 Yonge St", "POSTAL_CODE": "M2M 3X4", "GC_LONGITUDE": -79.42191127, "GC_LATITUDE": 43.79474622 }, "geometry": { "type": "Point", "coordinates": [ -79.42191127, 43.79474622 ] } },
{ "type": "Feature", "properties": { "ID": 35346, "ADDRESS_OR_INTERSECTION": "1615 Dufferin St", "POSTAL_CODE": "M6H 3L9", "GC_LONGITUDE": -79.4422745, "GC_LATITUDE": 43.67662666 }, "geometry": { "type": "Point", "coordinates": [ -79.4422745, 43.67662666 ] } },
{ "type": "Feature", "properties": { "ID": 35396, "ADDRESS_OR_INTERSECTION": "1263 St Clair Ave W", "POSTAL_CODE": "M6E 1B8", "GC_LONGITUDE": -79.44663868000001, "GC_LATITUDE": 43.67692231 }, "geometry": { "type": "Point", "coordinates": [ -79.44663868, 43.67692231 ] } },
{ "type": "Feature", "properties": { "ID": 35836, "ADDRESS_OR_INTERSECTION": "2700 Dufferin St", "POSTAL_CODE": "M6B 4J3", "GC_LONGITUDE": -79.45399295, "GC_LATITUDE": 43.7017135 }, "geometry": { "type": "Point", "coordinates": [ -79.45399295, 43.7017135 ] } },
{ "type": "Feature", "properties": { "ID": 35964, "ADDRESS_OR_INTERSECTION": "25 Overlea Blvd", "POSTAL_CODE": "M4H 1P9", "GC_LONGITUDE": -79.34981987, "GC_LATITUDE": 43.70435929 }, "geometry": { "type": "Point", "coordinates": [ -79.34981987, 43.70435929 ] } },
{ "type": "Feature", "properties": { "ID": 36004, "ADDRESS_OR_INTERSECTION": "1366 Yonge St", "POSTAL_CODE": "M4T 3A7", "GC_LONGITUDE": -79.39359243, "GC_LATITUDE": 43.68603864 }, "geometry": { "type": "Point", "coordinates": [ -79.39359243, 43.68603864 ] } },
{ "type": "Feature", "properties": { "ID": 36348, "ADDRESS_OR_INTERSECTION": "30 Bond St       ", "POSTAL_CODE": "M5B 1W8", "GC_LONGITUDE": -79.37768251, "GC_LATITUDE": 43.65365547 }, "geometry": { "type": "Point", "coordinates": [ -79.37768251, 43.65365547 ] } },
{ "type": "Feature", "properties": { "ID": 36436, "ADDRESS_OR_INTERSECTION": "66 Wellington St W", "POSTAL_CODE": "M5K 1A1", "GC_LONGITUDE": -79.3812248, "GC_LATITUDE": 43.64723088 }, "geometry": { "type": "Point", "coordinates": [ -79.3812248, 43.64723088 ] } },
{ "type": "Feature", "properties": { "ID": 36492, "ADDRESS_OR_INTERSECTION": "2159 Weston Rd", "POSTAL_CODE": "M9N 1X8", "GC_LONGITUDE": -79.52496568, "GC_LATITUDE": 43.70318024 }, "geometry": { "type": "Point", "coordinates": [ -79.52496568, 43.70318024 ] } },
{ "type": "Feature", "properties": { "ID": 36556, "ADDRESS_OR_INTERSECTION": "10 Lower Jarvis St", "POSTAL_CODE": "M5E 1Z2", "GC_LONGITUDE": -79.36987821, "GC_LATITUDE": 43.64449046 }, "geometry": { "type": "Point", "coordinates": [ -79.36987821, 43.64449046 ] } },
{ "type": "Feature", "properties": { "ID": 37060, "ADDRESS_OR_INTERSECTION": "3671 Dundas St W", "POSTAL_CODE": "M6S 2T3", "GC_LONGITUDE": -79.49587019000001, "GC_LATITUDE": 43.66544274 }, "geometry": { "type": "Point", "coordinates": [ -79.49587019, 43.66544274 ] } },
{ "type": "Feature", "properties": { "ID": 37244, "ADDRESS_OR_INTERSECTION": "3003 Danforth Ave", "POSTAL_CODE": "M4C 1M9", "GC_LONGITUDE": -79.28869901, "GC_LATITUDE": 43.69064222 }, "geometry": { "type": "Point", "coordinates": [ -79.28869901, 43.69064222 ] } },
{ "type": "Feature", "properties": { "ID": 37324, "ADDRESS_OR_INTERSECTION": "586 Eglinton Ave E", "POSTAL_CODE": "M4P 1P2", "GC_LONGITUDE": -79.37963695000001, "GC_LATITUDE": 43.71090461 }, "geometry": { "type": "Point", "coordinates": [ -79.37963695, 43.71090461 ] } },
{ "type": "Feature", "properties": { "ID": 37364, "ADDRESS_OR_INTERSECTION": "6620 Finch Ave W", "POSTAL_CODE": "M9V 5H7", "GC_LONGITUDE": -79.60230488000001, "GC_LATITUDE": 43.73513752 }, "geometry": { "type": "Point", "coordinates": [ -79.60230488, 43.73513752 ] } },
{ "type": "Feature", "properties": { "ID": 37436, "ADDRESS_OR_INTERSECTION": "755 Danforth Ave", "POSTAL_CODE": "M4J 1L2", "GC_LONGITUDE": -79.34226695, "GC_LATITUDE": 43.67920203 }, "geometry": { "type": "Point", "coordinates": [ -79.34226695, 43.67920203 ] } },
{ "type": "Feature", "properties": { "ID": 37980, "ADDRESS_OR_INTERSECTION": "396 St Clair Ave W", "POSTAL_CODE": "M5P 3N3", "GC_LONGITUDE": -79.41530793, "GC_LATITUDE": 43.68408377 }, "geometry": { "type": "Point", "coordinates": [ -79.41530793, 43.68408377 ] } },
{ "type": "Feature", "properties": { "ID": 38188, "ADDRESS_OR_INTERSECTION": "80 Front St E", "POSTAL_CODE": "M5E 1T4", "GC_LONGITUDE": -79.37294999, "GC_LATITUDE": 43.64949761 }, "geometry": { "type": "Point", "coordinates": [ -79.37294999, 43.64949761 ] } },
{ "type": "Feature", "properties": { "ID": 38420, "ADDRESS_OR_INTERSECTION": "50 Musgrave St", "POSTAL_CODE": "M4E 3W2", "GC_LONGITUDE": -79.2882192, "GC_LATITUDE": 43.68799083 }, "geometry": { "type": "Point", "coordinates": [ -79.2882192, 43.68799083 ] } },
{ "type": "Feature", "properties": { "ID": 38460, "ADDRESS_OR_INTERSECTION": "80 Finch Ave West", "POSTAL_CODE": "M2N 2H4", "GC_LONGITUDE": -79.42257257, "GC_LATITUDE": 43.77850674 }, "geometry": { "type": "Point", "coordinates": [ -79.42257257, 43.77850674 ] } },
{ "type": "Feature", "properties": { "ID": 38620, "ADDRESS_OR_INTERSECTION": "5095 Yonge St", "POSTAL_CODE": "M2N 6Z4", "GC_LONGITUDE": -79.41227833000001, "GC_LATITUDE": 43.76828884 }, "geometry": { "type": "Point", "coordinates": [ -79.41227833, 43.76828884 ] } },
{ "type": "Feature", "properties": { "ID": 38740, "ADDRESS_OR_INTERSECTION": "343 Wilson Ave", "POSTAL_CODE": "M3H 1T1", "GC_LONGITUDE": -79.43584148, "GC_LATITUDE": 43.73676664 }, "geometry": { "type": "Point", "coordinates": [ -79.43584148, 43.73676664 ] } },
{ "type": "Feature", "properties": { "ID": 38892, "ADDRESS_OR_INTERSECTION": "2440 Dundas St W", "POSTAL_CODE": "M6P 1W9", "GC_LONGITUDE": -79.45295357000001, "GC_LATITUDE": 43.65911978 }, "geometry": { "type": "Point", "coordinates": [ -79.45295357, 43.65911978 ] } },
{ "type": "Feature", "properties": { "ID": 39036, "ADDRESS_OR_INTERSECTION": "1533 Jane St", "POSTAL_CODE": "M9N 2R2", "GC_LONGITUDE": -79.50188855, "GC_LATITUDE": 43.69706752 }, "geometry": { "type": "Point", "coordinates": [ -79.50188855, 43.69706752 ] } },
{ "type": "Feature", "properties": { "ID": 39052, "ADDRESS_OR_INTERSECTION": "100 Billy Bishop Way", "POSTAL_CODE": "M3K 2C8", "GC_LONGITUDE": -79.45581442, "GC_LATITUDE": 43.73105161 }, "geometry": { "type": "Point", "coordinates": [ -79.45581442, 43.73105161 ] } },
{ "type": "Feature", "properties": { "ID": 39092, "ADDRESS_OR_INTERSECTION": "449 Carlaw Ave", "POSTAL_CODE": "M4K 3H9", "GC_LONGITUDE": -79.34275343, "GC_LATITUDE": 43.66830329 }, "geometry": { "type": "Point", "coordinates": [ -79.34275343, 43.66830329 ] } },
{ "type": "Feature", "properties": { "ID": 39220, "ADDRESS_OR_INTERSECTION": "528 College St", "POSTAL_CODE": "M6G 1A6", "GC_LONGITUDE": -79.41093226, "GC_LATITUDE": 43.65607714 }, "geometry": { "type": "Point", "coordinates": [ -79.41093226, 43.65607714 ] } },
{ "type": "Feature", "properties": { "ID": 39756, "ADDRESS_OR_INTERSECTION": "463 College St", "POSTAL_CODE": "M6G 4C1", "GC_LONGITUDE": -79.40852241, "GC_LATITUDE": 43.65610061 }, "geometry": { "type": "Point", "coordinates": [ -79.40852241, 43.65610061 ] } },
{ "type": "Feature", "properties": { "ID": 39884, "ADDRESS_OR_INTERSECTION": "2920 Sheppard Ave E", "POSTAL_CODE": "M1T 3J4", "GC_LONGITUDE": -79.32225175000001, "GC_LATITUDE": 43.7759612 }, "geometry": { "type": "Point", "coordinates": [ -79.32225175, 43.7759612 ] } },
{ "type": "Feature", "properties": { "ID": 40092, "ADDRESS_OR_INTERSECTION": "2575 Danforth Ave", "POSTAL_CODE": "M4C 1L5", "GC_LONGITUDE": -79.3003204, "GC_LATITUDE": 43.68820139 }, "geometry": { "type": "Point", "coordinates": [ -79.3003204, 43.68820139 ] } },
{ "type": "Feature", "properties": { "ID": 40252, "ADDRESS_OR_INTERSECTION": "585 University Ave", "POSTAL_CODE": "M5G 2N2", "GC_LONGITUDE": -79.38914432, "GC_LATITUDE": 43.65816349 }, "geometry": { "type": "Point", "coordinates": [ -79.38914432, 43.65816349 ] } },
{ "type": "Feature", "properties": { "ID": 40340, "ADDRESS_OR_INTERSECTION": "196 Wilson Ave", "POSTAL_CODE": "M5M 4N7", "GC_LONGITUDE": -79.42389033000001, "GC_LATITUDE": 43.73979714 }, "geometry": { "type": "Point", "coordinates": [ -79.42389033, 43.73979714 ] } },
{ "type": "Feature", "properties": { "ID": 40380, "ADDRESS_OR_INTERSECTION": "901 King St W", "POSTAL_CODE": "M5V 3H5", "GC_LONGITUDE": -79.41125002, "GC_LATITUDE": 43.64188101 }, "geometry": { "type": "Point", "coordinates": [ -79.41125002, 43.64188101 ] } },
{ "type": "Feature", "properties": { "ID": 40396, "ADDRESS_OR_INTERSECTION": "2155 St Clair Ave W", "POSTAL_CODE": "M6N 1K5", "GC_LONGITUDE": -79.47317365000001, "GC_LATITUDE": 43.66965115 }, "geometry": { "type": "Point", "coordinates": [ -79.47317365, 43.66965115 ] } },
{ "type": "Feature", "properties": { "ID": 40420, "ADDRESS_OR_INTERSECTION": "817 Yonge St", "POSTAL_CODE": "M4W 2G9", "GC_LONGITUDE": -79.38746816, "GC_LATITUDE": 43.67249379 }, "geometry": { "type": "Point", "coordinates": [ -79.38746816, 43.67249379 ] } },
{ "type": "Feature", "properties": { "ID": 40700, "ADDRESS_OR_INTERSECTION": "1901 Weston Rd", "POSTAL_CODE": "M9N 3P5", "GC_LONGITUDE": -79.51599334, "GC_LATITUDE": 43.70058906 }, "geometry": { "type": "Point", "coordinates": [ -79.51599334, 43.70058906 ] } },
{ "type": "Feature", "properties": { "ID": 300012, "ADDRESS_OR_INTERSECTION": "3685 Keele St", "POSTAL_CODE": "M3J 3H6", "GC_LONGITUDE": -79.48772248, "GC_LATITUDE": 43.75407674 }, "geometry": { "type": "Point", "coordinates": [ -79.48772248, 43.75407674 ] } },
{ "type": "Feature", "properties": { "ID": 300075, "ADDRESS_OR_INTERSECTION": "1 York St", "POSTAL_CODE": "M5J 2Y2", "GC_LONGITUDE": -79.38057986, "GC_LATITUDE": 43.64134384 }, "geometry": { "type": "Point", "coordinates": [ -79.38057986, 43.64134384 ] } },
{ "type": "Feature", "properties": { "ID": 300097, "ADDRESS_OR_INTERSECTION": "222 Lansdowne Ave", "POSTAL_CODE": "M6K 3C6", "GC_LONGITUDE": -79.44069862000001, "GC_LATITUDE": 43.6495619 }, "geometry": { "type": "Point", "coordinates": [ -79.44069862, 43.6495619 ] } },
{ "type": "Feature", "properties": { "ID": 300108, "ADDRESS_OR_INTERSECTION": "100 Lynn Williams St", "POSTAL_CODE": "M6K 3N6", "GC_LONGITUDE": -79.41786756, "GC_LATITUDE": 43.639949 }, "geometry": { "type": "Point", "coordinates": [ -79.41786756, 43.639949 ] } },
{ "type": "Feature", "properties": { "ID": 300144, "ADDRESS_OR_INTERSECTION": "1450 Lawrence Ave E", "POSTAL_CODE": "M4A 2S8", "GC_LONGITUDE": -79.31040971, "GC_LATITUDE": 43.74245574 }, "geometry": { "type": "Point", "coordinates": [ -79.31040971, 43.74245574 ] } },
{ "type": "Feature", "properties": { "ID": 300176, "ADDRESS_OR_INTERSECTION": "1500 Woodbine Ave", "POSTAL_CODE": "M4C 4G9", "GC_LONGITUDE": -79.31921775000001, "GC_LATITUDE": 43.69924969 }, "geometry": { "type": "Point", "coordinates": [ -79.31921775, 43.69924969 ] } },
{ "type": "Feature", "properties": { "ID": 300273, "ADDRESS_OR_INTERSECTION": "343 Coxwell Ave", "POSTAL_CODE": "M4L 3B5", "GC_LONGITUDE": -79.31992934, "GC_LATITUDE": 43.67520674 }, "geometry": { "type": "Point", "coordinates": [ -79.31992934, 43.67520674 ] } },
{ "type": "Feature", "properties": { "ID": 300274, "ADDRESS_OR_INTERSECTION": "1637 Dundas St W", "POSTAL_CODE": "M6K 1V2", "GC_LONGITUDE": -79.43626669, "GC_LATITUDE": 43.64978349 }, "geometry": { "type": "Point", "coordinates": [ -79.43626669, 43.64978349 ] } },
{ "type": "Feature", "properties": { "ID": 300298, "ADDRESS_OR_INTERSECTION": "51 Gerry Fitzgerald Dr", "POSTAL_CODE": "M3J 3N4", "GC_LONGITUDE": -79.47151375, "GC_LATITUDE": 43.78482699 }, "geometry": { "type": "Point", "coordinates": [ -79.47151375, 43.78482699 ] } },
{ "type": "Feature", "properties": { "ID": 300315, "ADDRESS_OR_INTERSECTION": "388 King St W", "POSTAL_CODE": "M5V 1K2", "GC_LONGITUDE": -79.39274188, "GC_LATITUDE": 43.64632871 }, "geometry": { "type": "Point", "coordinates": [ -79.39274188, 43.64632871 ] } },
{ "type": "Feature", "properties": { "ID": 300320, "ADDRESS_OR_INTERSECTION": "473 Church St", "POSTAL_CODE": "M4Y 2C5", "GC_LONGITUDE": -79.38010303, "GC_LATITUDE": 43.66451758 }, "geometry": { "type": "Point", "coordinates": [ -79.38010303, 43.66451758 ] } },
{ "type": "Feature", "properties": { "ID": 300339, "ADDRESS_OR_INTERSECTION": "325 Queen St E", "POSTAL_CODE": "M5A 1S9", "GC_LONGITUDE": -79.36535407, "GC_LATITUDE": 43.65520721 }, "geometry": { "type": "Point", "coordinates": [ -79.36535407, 43.65520721 ] } },
{ "type": "Feature", "properties": { "ID": 300343, "ADDRESS_OR_INTERSECTION": "4949 Bathurst St", "POSTAL_CODE": "M2R 1Y1", "GC_LONGITUDE": -79.44238476, "GC_LATITUDE": 43.77436455 }, "geometry": { "type": "Point", "coordinates": [ -79.44238476, 43.77436455 ] } },
{ "type": "Feature", "properties": { "ID": 300357, "ADDRESS_OR_INTERSECTION": "129 Dundas St E", "POSTAL_CODE": "M5B 2N6", "GC_LONGITUDE": -79.37616009, "GC_LATITUDE": 43.65656703 }, "geometry": { "type": "Point", "coordinates": [ -79.37616009, 43.65656703 ] } },
{ "type": "Feature", "properties": { "ID": 300376, "ADDRESS_OR_INTERSECTION": "2245 Islington Ave", "POSTAL_CODE": "M9W 3W7", "GC_LONGITUDE": -79.55359832000001, "GC_LATITUDE": 43.71417662 }, "geometry": { "type": "Point", "coordinates": [ -79.55359832, 43.71417662 ] } },
{ "type": "Feature", "properties": { "ID": 300377, "ADDRESS_OR_INTERSECTION": "1018 Pape Ave", "POSTAL_CODE": "M4K 3V9", "GC_LONGITUDE": -79.34901873, "GC_LATITUDE": 43.68900726 }, "geometry": { "type": "Point", "coordinates": [ -79.34901873, 43.68900726 ] } },
{ "type": "Feature", "properties": { "ID": 300393, "ADDRESS_OR_INTERSECTION": "292 Dupont St", "POSTAL_CODE": "M5R 1V9", "GC_LONGITUDE": -79.4079173, "GC_LATITUDE": 43.67494337 }, "geometry": { "type": "Point", "coordinates": [ -79.4079173, 43.67494337 ] } },
{ "type": "Feature", "properties": { "ID": 300436, "ADDRESS_OR_INTERSECTION": "2525 St Clair Ave W", "POSTAL_CODE": "M6N 4Z5", "GC_LONGITUDE": -79.48530494000001, "GC_LATITUDE": 43.66806689 }, "geometry": { "type": "Point", "coordinates": [ -79.48530494, 43.66806689 ] } },
{ "type": "Feature", "properties": { "ID": 300535, "ADDRESS_OR_INTERSECTION": "2130 Lawrence Ave E", "POSTAL_CODE": "M1R 3A6", "GC_LONGITUDE": -79.28734356, "GC_LATITUDE": 43.74753914 }, "geometry": { "type": "Point", "coordinates": [ -79.28734356, 43.74753914 ] } },
{ "type": "Feature", "properties": { "ID": 300542, "ADDRESS_OR_INTERSECTION": "900 Albion Rd", "POSTAL_CODE": "M9V 1A5", "GC_LONGITUDE": -79.55933958, "GC_LATITUDE": 43.73535982 }, "geometry": { "type": "Point", "coordinates": [ -79.55933958, 43.73535982 ] } },
{ "type": "Feature", "properties": { "ID": 300599, "ADDRESS_OR_INTERSECTION": "4990 Yonge St", "POSTAL_CODE": "M2N 0A1", "GC_LONGITUDE": -79.41247433, "GC_LATITUDE": 43.765808 }, "geometry": { "type": "Point", "coordinates": [ -79.41247433, 43.765808 ] } },
{ "type": "Feature", "properties": { "ID": 300627, "ADDRESS_OR_INTERSECTION": "2086 Lawrence Ave W", "POSTAL_CODE": "M9N 3Z9", "GC_LONGITUDE": -79.51846604000001, "GC_LATITUDE": 43.69988633 }, "geometry": { "type": "Point", "coordinates": [ -79.51846604, 43.69988633 ] } },
{ "type": "Feature", "properties": { "ID": 300638, "ADDRESS_OR_INTERSECTION": "1700 Eglinton Ave E", "POSTAL_CODE": "M4A 2X4", "GC_LONGITUDE": -79.31186111, "GC_LATITUDE": 43.72657334 }, "geometry": { "type": "Point", "coordinates": [ -79.31186111, 43.72657334 ] } },
{ "type": "Feature", "properties": { "ID": 300667, "ADDRESS_OR_INTERSECTION": "25 Photography Dr", "POSTAL_CODE": "M6M 0A1", "GC_LONGITUDE": -79.48376795, "GC_LATITUDE": 43.68677217 }, "geometry": { "type": "Point", "coordinates": [ -79.48376795, 43.68677217 ] } },
{ "type": "Feature", "properties": { "ID": 300679, "ADDRESS_OR_INTERSECTION": "2930 Islington Ave", "POSTAL_CODE": "M9L 2K5", "GC_LONGITUDE": -79.56973401, "GC_LATITUDE": 43.75651206 }, "geometry": { "type": "Point", "coordinates": [ -79.56973401, 43.75651206 ] } },
{ "type": "Feature", "properties": { "ID": 300689, "ADDRESS_OR_INTERSECTION": "12 Flemington Rd", "POSTAL_CODE": "M6A 2N4", "GC_LONGITUDE": -79.44495854, "GC_LATITUDE": 43.71953287 }, "geometry": { "type": "Point", "coordinates": [ -79.44495854, 43.71953287 ] } },
{ "type": "Feature", "properties": { "ID": 300690, "ADDRESS_OR_INTERSECTION": "576 Rogers Rd", "POSTAL_CODE": "M6M 1B6", "GC_LONGITUDE": -79.47132918, "GC_LATITUDE": 43.68238268 }, "geometry": { "type": "Point", "coordinates": [ -79.47132918, 43.68238268 ] } },
{ "type": "Feature", "properties": { "ID": 300744, "ADDRESS_OR_INTERSECTION": "3 The Links Rd", "POSTAL_CODE": "M2P 1T7", "GC_LONGITUDE": -79.40293, "GC_LATITUDE": 43.749652 }, "geometry": { "type": "Point", "coordinates": [ -79.40293, 43.749652 ] } },
{ "type": "Feature", "properties": { "ID": 300862, "ADDRESS_OR_INTERSECTION": "790 Bay St", "POSTAL_CODE": "M5G 1N8", "GC_LONGITUDE": -79.38617832, "GC_LATITUDE": 43.66045455 }, "geometry": { "type": "Point", "coordinates": [ -79.38617832, 43.66045455 ] } },
{ "type": "Feature", "properties": { "ID": 300895, "ADDRESS_OR_INTERSECTION": "2549 Weston Rd", "POSTAL_CODE": "M9N 2A7", "GC_LONGITUDE": -79.53385393000001, "GC_LATITUDE": 43.70995862 }, "geometry": { "type": "Point", "coordinates": [ -79.53385393, 43.70995862 ] } },
{ "type": "Feature", "properties": { "ID": 300911, "ADDRESS_OR_INTERSECTION": "700 University Ave", "POSTAL_CODE": "M5G 1Z5", "GC_LONGITUDE": -79.39119131, "GC_LATITUDE": 43.65901631 }, "geometry": { "type": "Point", "coordinates": [ -79.39119131, 43.65901631 ] } },
{ "type": "Feature", "properties": { "ID": 300933, "ADDRESS_OR_INTERSECTION": "3170 Eglinton Ave E", "POSTAL_CODE": "M1J 2H3", "GC_LONGITUDE": -79.22143164000001, "GC_LATITUDE": 43.74327021 }, "geometry": { "type": "Point", "coordinates": [ -79.22143164, 43.74327021 ] } },
{ "type": "Feature", "properties": { "ID": 300999, "ADDRESS_OR_INTERSECTION": "348 Wilson Ave", "POSTAL_CODE": "M3H 1S9", "GC_LONGITUDE": -79.4381131, "GC_LATITUDE": 43.73684851 }, "geometry": { "type": "Point", "coordinates": [ -79.4381131, 43.73684851 ] } },
{ "type": "Feature", "properties": { "ID": 301086, "ADDRESS_OR_INTERSECTION": "946 Lawrence Ave E", "POSTAL_CODE": "M3C 1R1", "GC_LONGITUDE": -79.34596187, "GC_LATITUDE": 43.73712403 }, "geometry": { "type": "Point", "coordinates": [ -79.34596187, 43.73712403 ] } },
{ "type": "Feature", "properties": { "ID": 301089, "ADDRESS_OR_INTERSECTION": "605 Rogers Rd", "POSTAL_CODE": "M6M 1B9", "GC_LONGITUDE": -79.47451335, "GC_LATITUDE": 43.68161883 }, "geometry": { "type": "Point", "coordinates": [ -79.47451335, 43.68161883 ] } },
{ "type": "Feature", "properties": { "ID": 301105, "ADDRESS_OR_INTERSECTION": "130 Industry St", "POSTAL_CODE": "M6M 5G3", "GC_LONGITUDE": -79.49507291, "GC_LATITUDE": 43.69467239 }, "geometry": { "type": "Point", "coordinates": [ -79.49507291, 43.69467239 ] } },
{ "type": "Feature", "properties": { "ID": 301110, "ADDRESS_OR_INTERSECTION": "491 Eglinton Ave W", "POSTAL_CODE": "M5N 1A8", "GC_LONGITUDE": -79.41285154000001, "GC_LATITUDE": 43.7034636 }, "geometry": { "type": "Point", "coordinates": [ -79.41285154, 43.7034636 ] } },
{ "type": "Feature", "properties": { "ID": 301161, "ADDRESS_OR_INTERSECTION": "1015 Lake Shore Blvd E", "POSTAL_CODE": "M4M 1B4", "GC_LONGITUDE": -79.3299163, "GC_LATITUDE": 43.65798288 }, "geometry": { "type": "Point", "coordinates": [ -79.3299163, 43.65798288 ] } },
{ "type": "Feature", "properties": { "ID": 301183, "ADDRESS_OR_INTERSECTION": "700 Lawrence Ave W", "POSTAL_CODE": "M6A 3B4", "GC_LONGITUDE": -79.44743415000001, "GC_LATITUDE": 43.71693493 }, "geometry": { "type": "Point", "coordinates": [ -79.44743415, 43.71693493 ] } },
{ "type": "Feature", "properties": { "ID": 301199, "ADDRESS_OR_INTERSECTION": "2200 Martin Grove Rd", "POSTAL_CODE": "M9V 5H9", "GC_LONGITUDE": -79.59916507, "GC_LATITUDE": 43.7516287 }, "geometry": { "type": "Point", "coordinates": [ -79.59916507, 43.7516287 ] } },
{ "type": "Feature", "properties": { "ID": 301202, "ADDRESS_OR_INTERSECTION": "145 Marlee Ave", "POSTAL_CODE": "M6B 3H3", "GC_LONGITUDE": -79.44103039, "GC_LATITUDE": 43.70326335 }, "geometry": { "type": "Point", "coordinates": [ -79.44103039, 43.70326335 ] } },
{ "type": "Feature", "properties": { "ID": 301283, "ADDRESS_OR_INTERSECTION": "29 Toronto St", "POSTAL_CODE": "L9P 1V9", "GC_LONGITUDE": -79.122659, "GC_LATITUDE": 44.107756 }, "geometry": { "type": "Point", "coordinates": [ -79.122659, 44.107756 ] } },
{ "type": "Feature", "properties": { "ID": 301294, "ADDRESS_OR_INTERSECTION": "2040 Victoria Park Ave", "POSTAL_CODE": "M1R 1V2", "GC_LONGITUDE": -79.31388219, "GC_LATITUDE": 43.75259662 }, "geometry": { "type": "Point", "coordinates": [ -79.31388219, 43.75259662 ] } },
{ "type": "Feature", "properties": { "ID": 301314, "ADDRESS_OR_INTERSECTION": "6023 Yonge St", "POSTAL_CODE": "M2M 3W2", "GC_LONGITUDE": -79.41754461, "GC_LATITUDE": 43.78928362 }, "geometry": { "type": "Point", "coordinates": [ -79.41754461, 43.78928362 ] } },
{ "type": "Feature", "properties": { "ID": 301330, "ADDRESS_OR_INTERSECTION": "10 Dundas St E", "POSTAL_CODE": "M5B 2G9", "GC_LONGITUDE": -79.38069137, "GC_LATITUDE": 43.65669295 }, "geometry": { "type": "Point", "coordinates": [ -79.38069137, 43.65669295 ] } },
{ "type": "Feature", "properties": { "ID": 301405, "ADDRESS_OR_INTERSECTION": "2111 Jane St", "POSTAL_CODE": "M3M 1A2", "GC_LONGITUDE": -79.5078029, "GC_LATITUDE": 43.71897714 }, "geometry": { "type": "Point", "coordinates": [ -79.5078029, 43.71897714 ] } },
{ "type": "Feature", "properties": { "ID": 301440, "ADDRESS_OR_INTERSECTION": "180 Danforth Ave.", "POSTAL_CODE": "M4K 1N1", "GC_LONGITUDE": -79.35701011, "GC_LATITUDE": 43.67689898 }, "geometry": { "type": "Point", "coordinates": [ -79.35701011, 43.67689898 ] } },
{ "type": "Feature", "properties": { "ID": 301566, "ADDRESS_OR_INTERSECTION": "347 Spadina Ave.", "POSTAL_CODE": "M5T 2G3", "GC_LONGITUDE": -79.3986705, "GC_LATITUDE": 43.65528165 }, "geometry": { "type": "Point", "coordinates": [ -79.3986705, 43.65528165 ] } },
{ "type": "Feature", "properties": { "ID": 301574, "ADDRESS_OR_INTERSECTION": "650 Sheppard Ave. E", "POSTAL_CODE": "M2K 3E4", "GC_LONGITUDE": -79.38143225, "GC_LATITUDE": 43.76858557 }, "geometry": { "type": "Point", "coordinates": [ -79.38143225, 43.76858557 ] } },
{ "type": "Feature", "properties": { "ID": 301621, "ADDRESS_OR_INTERSECTION": "825 Coxwell Ave", "POSTAL_CODE": "M4C 3E7", "GC_LONGITUDE": -79.324954, "GC_LATITUDE": 43.689832 }, "geometry": { "type": "Point", "coordinates": [ -79.324954, 43.689832 ] } },
{ "type": "Feature", "properties": { "ID": 301710, "ADDRESS_OR_INTERSECTION": "3630 Victoria Park Ave.", "POSTAL_CODE": "M2H 3B2", "GC_LONGITUDE": -79.33883491, "GC_LATITUDE": 43.80710843 }, "geometry": { "type": "Point", "coordinates": [ -79.33883491, 43.80710843 ] } },
{ "type": "Feature", "properties": { "ID": 301724, "ADDRESS_OR_INTERSECTION": "1263 Wilson Ave", "POSTAL_CODE": "M3M 3G3", "GC_LONGITUDE": -79.49158877000001, "GC_LATITUDE": 43.72427552 }, "geometry": { "type": "Point", "coordinates": [ -79.49158877, 43.72427552 ] } },
{ "type": "Feature", "properties": { "ID": 301774, "ADDRESS_OR_INTERSECTION": "3341 Markham Rd", "POSTAL_CODE": "M1X 0A5", "GC_LONGITUDE": -79.25044607, "GC_LATITUDE": 43.83564572 }, "geometry": { "type": "Point", "coordinates": [ -79.25044607, 43.83564572 ] } },
{ "type": "Feature", "properties": { "ID": 301830, "ADDRESS_OR_INTERSECTION": "10 Northtown Way", "POSTAL_CODE": "M2N 7L4", "GC_LONGITUDE": -79.41324087, "GC_LATITUDE": 43.77582619 }, "geometry": { "type": "Point", "coordinates": [ -79.41324087, 43.77582619 ] } },
{ "type": "Feature", "properties": { "ID": 301835, "ADDRESS_OR_INTERSECTION": "4G Spadina Ave", "POSTAL_CODE": "M5V 3Z9", "GC_LONGITUDE": -79.393614, "GC_LATITUDE": 43.64100349 }, "geometry": { "type": "Point", "coordinates": [ -79.393614, 43.64100349 ] } },
{ "type": "Feature", "properties": { "ID": 301846, "ADDRESS_OR_INTERSECTION": "1265 Morningside Ave", "POSTAL_CODE": "M1B 3V9", "GC_LONGITUDE": -79.19944828, "GC_LATITUDE": 43.80255167 }, "geometry": { "type": "Point", "coordinates": [ -79.19944828, 43.80255167 ] } },
{ "type": "Feature", "properties": { "ID": 301877, "ADDRESS_OR_INTERSECTION": "333 Bay St", "POSTAL_CODE": "M5H 2R2", "GC_LONGITUDE": -79.38035554, "GC_LATITUDE": 43.65037603 }, "geometry": { "type": "Point", "coordinates": [ -79.38035554, 43.65037603 ] } },
{ "type": "Feature", "properties": { "ID": 301914, "ADDRESS_OR_INTERSECTION": "872 Sheppard Ave W", "POSTAL_CODE": "M3H 5V5", "GC_LONGITUDE": -79.45422735, "GC_LATITUDE": 43.75247822 }, "geometry": { "type": "Point", "coordinates": [ -79.45422735, 43.75247822 ] } },
{ "type": "Feature", "properties": { "ID": 301922, "ADDRESS_OR_INTERSECTION": "62 Overlea Blvd", "POSTAL_CODE": "M4H 1C4", "GC_LONGITUDE": -79.3434811, "GC_LATITUDE": 43.70779364 }, "geometry": { "type": "Point", "coordinates": [ -79.3434811, 43.70779364 ] } },
{ "type": "Feature", "properties": { "ID": 302027, "ADDRESS_OR_INTERSECTION": "260 Queen Street West", "POSTAL_CODE": "M5V 1Z8", "GC_LONGITUDE": -79.39188751, "GC_LATITUDE": 43.64989158 }, "geometry": { "type": "Point", "coordinates": [ -79.39188751, 43.64989158 ] } },
{ "type": "Feature", "properties": { "ID": 302055, "ADDRESS_OR_INTERSECTION": "1278 The Queensway", "POSTAL_CODE": "M8Z 1S3", "GC_LONGITUDE": -79.52658013, "GC_LATITUDE": 43.62135363 }, "geometry": { "type": "Point", "coordinates": [ -79.52658013, 43.62135363 ] } },
{ "type": "Feature", "properties": { "ID": 302078, "ADDRESS_OR_INTERSECTION": "3551 Sheppard Ave E", "POSTAL_CODE": "M1T 3K8", "GC_LONGITUDE": -79.29973865, "GC_LATITUDE": 43.78025438 }, "geometry": { "type": "Point", "coordinates": [ -79.29973865, 43.78025438 ] } },
{ "type": "Feature", "properties": { "ID": 302094, "ADDRESS_OR_INTERSECTION": "14 Isabella St", "POSTAL_CODE": "M4Y 1N1", "GC_LONGITUDE": -79.38507935, "GC_LATITUDE": 43.66791658 }, "geometry": { "type": "Point", "coordinates": [ -79.38507935, 43.66791658 ] } },
{ "type": "Feature", "properties": { "ID": 302118, "ADDRESS_OR_INTERSECTION": "15 York St", "POSTAL_CODE": "M5J 0A3", "GC_LONGITUDE": -79.38087131, "GC_LATITUDE": 43.64234783 }, "geometry": { "type": "Point", "coordinates": [ -79.38087131, 43.64234783 ] } },
{ "type": "Feature", "properties": { "ID": 302196, "ADDRESS_OR_INTERSECTION": "69 Queen St E", "POSTAL_CODE": "M5C 1R8", "GC_LONGITUDE": -79.37606864, "GC_LATITUDE": 43.65289437 }, "geometry": { "type": "Point", "coordinates": [ -79.37606864, 43.65289437 ] } },
{ "type": "Feature", "properties": { "ID": 302225, "ADDRESS_OR_INTERSECTION": "918 Kingston Rd", "POSTAL_CODE": "M4E 1S5", "GC_LONGITUDE": -79.28913041, "GC_LATITUDE": 43.68056066 }, "geometry": { "type": "Point", "coordinates": [ -79.28913041, 43.68056066 ] } },
{ "type": "Feature", "properties": { "ID": 302250, "ADDRESS_OR_INTERSECTION": "200 Front St. E", "POSTAL_CODE": "M5A 4T9", "GC_LONGITUDE": -79.36632346, "GC_LATITUDE": 43.65110089 }, "geometry": { "type": "Point", "coordinates": [ -79.36632346, 43.65110089 ] } },
{ "type": "Feature", "properties": { "ID": 302339, "ADDRESS_OR_INTERSECTION": "3352 Keele St", "POSTAL_CODE": "M3J 1L5", "GC_LONGITUDE": -79.48709092, "GC_LATITUDE": 43.74604608 }, "geometry": { "type": "Point", "coordinates": [ -79.48709092, 43.74604608 ] } },
{ "type": "Feature", "properties": { "ID": 302379, "ADDRESS_OR_INTERSECTION": "4113 Lawrence Ave. E", "POSTAL_CODE": "M1E 2S2", "GC_LONGITUDE": -79.1942677, "GC_LATITUDE": 43.76639104 }, "geometry": { "type": "Point", "coordinates": [ -79.1942677, 43.76639104 ] } },
{ "type": "Feature", "properties": { "ID": 302413, "ADDRESS_OR_INTERSECTION": "3366 Yonge St", "POSTAL_CODE": "M4N 2M7", "GC_LONGITUDE": -79.40449277, "GC_LATITUDE": 43.73232214 }, "geometry": { "type": "Point", "coordinates": [ -79.40449277, 43.73232214 ] } },
{ "type": "Feature", "properties": { "ID": 302428, "ADDRESS_OR_INTERSECTION": "720 Spadina Ave ", "POSTAL_CODE": "M5S 2T9", "GC_LONGITUDE": -79.40362059, "GC_LATITUDE": 43.6652906 }, "geometry": { "type": "Point", "coordinates": [ -79.40362059, 43.6652906 ] } },
{ "type": "Feature", "properties": { "ID": 302435, "ADDRESS_OR_INTERSECTION": "2284 Kingston Rd.", "POSTAL_CODE": "M1N 1T9", "GC_LONGITUDE": -79.25235217, "GC_LATITUDE": 43.70544747 }, "geometry": { "type": "Point", "coordinates": [ -79.25235217, 43.70544747 ] } },
{ "type": "Feature", "properties": { "ID": 302440, "ADDRESS_OR_INTERSECTION": "236 Bloor St. W", "POSTAL_CODE": "M5S 1T8", "GC_LONGITUDE": -79.39699212, "GC_LATITUDE": 43.6683761 }, "geometry": { "type": "Point", "coordinates": [ -79.39699212, 43.6683761 ] } },
{ "type": "Feature", "properties": { "ID": 302465, "ADDRESS_OR_INTERSECTION": "1288 Danforth Ave", "POSTAL_CODE": "M4J 1M6", "GC_LONGITUDE": -79.33024015, "GC_LATITUDE": 43.68218469 }, "geometry": { "type": "Point", "coordinates": [ -79.33024015, 43.68218469 ] } },
{ "type": "Feature", "properties": { "ID": 302472, "ADDRESS_OR_INTERSECTION": "1678 Dufferin St", "POSTAL_CODE": "M6H 3M1", "GC_LONGITUDE": -79.44319925000001, "GC_LATITUDE": 43.67759378 }, "geometry": { "type": "Point", "coordinates": [ -79.44319925, 43.67759378 ] } },
{ "type": "Feature", "properties": { "ID": 302500, "ADDRESS_OR_INTERSECTION": "1 Oak St", "POSTAL_CODE": "M5A 0A1", "GC_LONGITUDE": -79.36606947, "GC_LATITUDE": 43.66064053 }, "geometry": { "type": "Point", "coordinates": [ -79.36606947, 43.66064053 ] } },
{ "type": "Feature", "properties": { "ID": 302512, "ADDRESS_OR_INTERSECTION": "1705 St Clair Ave W", "POSTAL_CODE": "M6N 1J2", "GC_LONGITUDE": -79.45940558, "GC_LATITUDE": 43.67406223 }, "geometry": { "type": "Point", "coordinates": [ -79.45940558, 43.67406223 ] } },
{ "type": "Feature", "properties": { "ID": 302526, "ADDRESS_OR_INTERSECTION": "1262 Don Mills Rd", "POSTAL_CODE": "M3B 2W6", "GC_LONGITUDE": -79.34647152, "GC_LATITUDE": 43.74472178 }, "geometry": { "type": "Point", "coordinates": [ -79.34647152, 43.74472178 ] } },
{ "type": "Feature", "properties": { "ID": 302530, "ADDRESS_OR_INTERSECTION": "60 Carlton St", "POSTAL_CODE": "M5B 1J2", "GC_LONGITUDE": -79.380033, "GC_LATITUDE": 43.66206094 }, "geometry": { "type": "Point", "coordinates": [ -79.380033, 43.66206094 ] } },
{ "type": "Feature", "properties": { "ID": 302531, "ADDRESS_OR_INTERSECTION": "585 Queen St W", "POSTAL_CODE": "M5V 2B7", "GC_LONGITUDE": -79.40159625, "GC_LATITUDE": 43.647554 }, "geometry": { "type": "Point", "coordinates": [ -79.40159625, 43.647554 ] } },
{ "type": "Feature", "properties": { "ID": 302536, "ADDRESS_OR_INTERSECTION": "18 Lower Jarvis St", "POSTAL_CODE": "M5E 1N1", "GC_LONGITUDE": -79.37088216, "GC_LATITUDE": 43.6475037 }, "geometry": { "type": "Point", "coordinates": [ -79.37088216, 43.6475037 ] } },
{ "type": "Feature", "properties": { "ID": 302552, "ADDRESS_OR_INTERSECTION": "171 East Liberty St", "POSTAL_CODE": "M6K 3P6", "GC_LONGITUDE": -79.41779587000001, "GC_LATITUDE": 43.63832458 }, "geometry": { "type": "Point", "coordinates": [ -79.41779587, 43.63832458 ] } },
{ "type": "Feature", "properties": { "ID": 302603, "ADDRESS_OR_INTERSECTION": "6230 Finch Ave W", "POSTAL_CODE": "M9V 0A1", "GC_LONGITUDE": -79.58945422, "GC_LATITUDE": 43.74197669 }, "geometry": { "type": "Point", "coordinates": [ -79.58945422, 43.74197669 ] } },
{ "type": "Feature", "properties": { "ID": 302617, "ADDRESS_OR_INTERSECTION": "3857 Lake Shore Blvd W", "POSTAL_CODE": "M8W 0A2", "GC_LONGITUDE": -79.54506687, "GC_LATITUDE": 43.58999929 }, "geometry": { "type": "Point", "coordinates": [ -79.54506687, 43.58999929 ] } },
{ "type": "Feature", "properties": { "ID": 302650, "ADDRESS_OR_INTERSECTION": "491 Church St.", "POSTAL_CODE": "M4Y 2C6", "GC_LONGITUDE": -79.38049226, "GC_LATITUDE": 43.66519624 }, "geometry": { "type": "Point", "coordinates": [ -79.38049226, 43.66519624 ] } },
{ "type": "Feature", "properties": { "ID": 302660, "ADDRESS_OR_INTERSECTION": "3323 Bathurst St", "POSTAL_CODE": "M6A 2B7", "GC_LONGITUDE": -79.43093572, "GC_LATITUDE": 43.7253807 }, "geometry": { "type": "Point", "coordinates": [ -79.43093572, 43.7253807 ] } },
{ "type": "Feature", "properties": { "ID": 302676, "ADDRESS_OR_INTERSECTION": "2928 Danforth Ave", "POSTAL_CODE": "M4C 1M1", "GC_LONGITUDE": -79.2935332, "GC_LATITUDE": 43.69027902 }, "geometry": { "type": "Point", "coordinates": [ -79.2935332, 43.69027902 ] } },
{ "type": "Feature", "properties": { "ID": 302694, "ADDRESS_OR_INTERSECTION": "2428 Islington Ave", "POSTAL_CODE": "M9W 3X8", "GC_LONGITUDE": -79.55994053000001, "GC_LATITUDE": 43.72351819 }, "geometry": { "type": "Point", "coordinates": [ -79.55994053, 43.72351819 ] } },
{ "type": "Feature", "properties": { "ID": 302697, "ADDRESS_OR_INTERSECTION": "1871 Danforth Ave", "POSTAL_CODE": "M4C 1J3", "GC_LONGITUDE": -79.31727385000001, "GC_LATITUDE": 43.68449921 }, "geometry": { "type": "Point", "coordinates": [ -79.31727385, 43.68449921 ] } },
{ "type": "Feature", "properties": { "ID": 302704, "ADDRESS_OR_INTERSECTION": "295 College St", "POSTAL_CODE": "M5T 1S2", "GC_LONGITUDE": -79.40122993, "GC_LATITUDE": 43.65747672 }, "geometry": { "type": "Point", "coordinates": [ -79.40122993, 43.65747672 ] } },
{ "type": "Feature", "properties": { "ID": 302740, "ADDRESS_OR_INTERSECTION": "787 Lawrence Ave W ", "POSTAL_CODE": "M6A 1C2", "GC_LONGITUDE": -79.45393839, "GC_LATITUDE": 43.71382146 }, "geometry": { "type": "Point", "coordinates": [ -79.45393839, 43.71382146 ] } },
{ "type": "Feature", "properties": { "ID": 302750, "ADDRESS_OR_INTERSECTION": "3480 Lawrence Ave E", "POSTAL_CODE": "M1H 1A9", "GC_LONGITUDE": -79.22695131, "GC_LATITUDE": 43.75979712 }, "geometry": { "type": "Point", "coordinates": [ -79.22695131, 43.75979712 ] } },
{ "type": "Feature", "properties": { "ID": 302792, "ADDRESS_OR_INTERSECTION": "5818 Sheppard Ave. E.", "POSTAL_CODE": "M1B 4Z6", "GC_LONGITUDE": -79.23021648, "GC_LATITUDE": 43.79634338 }, "geometry": { "type": "Point", "coordinates": [ -79.23021648, 43.79634338 ] } },
{ "type": "Feature", "properties": { "ID": 302809, "ADDRESS_OR_INTERSECTION": "2202 Jane St", "POSTAL_CODE": "M3M 1A4", "GC_LONGITUDE": -79.51075502, "GC_LATITUDE": 43.7221628 }, "geometry": { "type": "Point", "coordinates": [ -79.51075502, 43.7221628 ] } },
{ "type": "Feature", "properties": { "ID": 302830, "ADDRESS_OR_INTERSECTION": "2438 Lake Shore Blvd.", "POSTAL_CODE": "M8V 1C4", "GC_LONGITUDE": -79.489269, "GC_LATITUDE": 43.61426 }, "geometry": { "type": "Point", "coordinates": [ -79.489269, 43.61426 ] } },
{ "type": "Feature", "properties": { "ID": 302836, "ADDRESS_OR_INTERSECTION": "1577 Danforth Ave", "POSTAL_CODE": "M4C 1H7", "GC_LONGITUDE": -79.32304618000001, "GC_LATITUDE": 43.68318064 }, "geometry": { "type": "Point", "coordinates": [ -79.32304618, 43.68318064 ] } },
{ "type": "Feature", "properties": { "ID": 302853, "ADDRESS_OR_INTERSECTION": "1033 Queen St W", "POSTAL_CODE": "M6J 0A6", "GC_LONGITUDE": -79.41943856, "GC_LATITUDE": 43.64375287 }, "geometry": { "type": "Point", "coordinates": [ -79.41943856, 43.64375287 ] } },
{ "type": "Feature", "properties": { "ID": 302870, "ADDRESS_OR_INTERSECTION": "5468 Dundas Street West", "POSTAL_CODE": "M9B 6E3", "GC_LONGITUDE": -79.54465127, "GC_LATITUDE": 43.63282449 }, "geometry": { "type": "Point", "coordinates": [ -79.54465127, 43.63282449 ] } },
{ "type": "Feature", "properties": { "ID": 302876, "ADDRESS_OR_INTERSECTION": "220 Yonge St", "POSTAL_CODE": "M5B 2H1", "GC_LONGITUDE": -79.38011298000001, "GC_LATITUDE": 43.65367797 }, "geometry": { "type": "Point", "coordinates": [ -79.38011298, 43.65367797 ] } },
{ "type": "Feature", "properties": { "ID": 302882, "ADDRESS_OR_INTERSECTION": "93 Laird Dr", "POSTAL_CODE": "M4G 3T7", "GC_LONGITUDE": -79.35950035, "GC_LATITUDE": 43.70660724 }, "geometry": { "type": "Point", "coordinates": [ -79.35950035, 43.70660724 ] } },
{ "type": "Feature", "properties": { "ID": 302883, "ADDRESS_OR_INTERSECTION": "5460 Yonge St", "POSTAL_CODE": "M2N 6K7", "GC_LONGITUDE": -79.41552807, "GC_LATITUDE": 43.77721381 }, "geometry": { "type": "Point", "coordinates": [ -79.41552807, 43.77721381 ] } },
{ "type": "Feature", "properties": { "ID": 302890, "ADDRESS_OR_INTERSECTION": "2558 Danforth Ave", "POSTAL_CODE": "M4C 1L3", "GC_LONGITUDE": -79.30177034, "GC_LATITUDE": 43.68847089 }, "geometry": { "type": "Point", "coordinates": [ -79.30177034, 43.68847089 ] } },
{ "type": "Feature", "properties": { "ID": 302929, "ADDRESS_OR_INTERSECTION": "1575 Lawrence Ave W", "POSTAL_CODE": "M6L 1C3", "GC_LONGITUDE": -79.48854409, "GC_LATITUDE": 43.70579313 }, "geometry": { "type": "Point", "coordinates": [ -79.48854409, 43.70579313 ] } },
{ "type": "Feature", "properties": { "ID": 302931, "ADDRESS_OR_INTERSECTION": "14 College Street", "POSTAL_CODE": "M5G 1K2", "GC_LONGITUDE": -79.3839409, "GC_LATITUDE": 43.66148765 }, "geometry": { "type": "Point", "coordinates": [ -79.3839409, 43.66148765 ] } },
{ "type": "Feature", "properties": { "ID": 302936, "ADDRESS_OR_INTERSECTION": "553 St Clair Ave W", "POSTAL_CODE": "M6C 1A3", "GC_LONGITUDE": -79.42083895, "GC_LATITUDE": 43.68237655 }, "geometry": { "type": "Point", "coordinates": [ -79.42083895, 43.68237655 ] } },
{ "type": "Feature", "properties": { "ID": 302937, "ADDRESS_OR_INTERSECTION": "2300 Finch Avenue West", "POSTAL_CODE": "M9M 2Y3", "GC_LONGITUDE": -79.54227276, "GC_LATITUDE": 43.75361963 }, "geometry": { "type": "Point", "coordinates": [ -79.54227276, 43.75361963 ] } },
{ "type": "Feature", "properties": { "ID": 302945, "ADDRESS_OR_INTERSECTION": "1000 Gerrard St E", "POSTAL_CODE": "M4M 3G6", "GC_LONGITUDE": -79.33929344000001, "GC_LATITUDE": 43.66941811 }, "geometry": { "type": "Point", "coordinates": [ -79.33929344, 43.66941811 ] } },
{ "type": "Feature", "properties": { "ID": 302947, "ADDRESS_OR_INTERSECTION": "565 Sherbourne St", "POSTAL_CODE": "M4X 1W7", "GC_LONGITUDE": -79.3754306, "GC_LATITUDE": 43.66996097 }, "geometry": { "type": "Point", "coordinates": [ -79.3754306, 43.66996097 ] } },
{ "type": "Feature", "properties": { "ID": 302966, "ADDRESS_OR_INTERSECTION": "1118 Victoria Park Ave", "POSTAL_CODE": "M4B 2K3", "GC_LONGITUDE": -79.29624739, "GC_LATITUDE": 43.70793715 }, "geometry": { "type": "Point", "coordinates": [ -79.29624739, 43.70793715 ] } },
{ "type": "Feature", "properties": { "ID": 302974, "ADDRESS_OR_INTERSECTION": "2343 Eglinton Ave W", "POSTAL_CODE": "M6E 2L6", "GC_LONGITUDE": -79.46266418, "GC_LATITUDE": 43.69264528 }, "geometry": { "type": "Point", "coordinates": [ -79.46266418, 43.69264528 ] } },
{ "type": "Feature", "properties": { "ID": 302987, "ADDRESS_OR_INTERSECTION": "1 St Dennis Dr", "POSTAL_CODE": "M3C 1G7", "GC_LONGITUDE": -79.336212, "GC_LATITUDE": 43.716013 }, "geometry": { "type": "Point", "coordinates": [ -79.336212, 43.716013 ] } },
{ "type": "Feature", "properties": { "ID": 302991, "ADDRESS_OR_INTERSECTION": "243 Eglinton Ave W", "POSTAL_CODE": "M4R 1B1", "GC_LONGITUDE": -79.40663862, "GC_LATITUDE": 43.70480385 }, "geometry": { "type": "Point", "coordinates": [ -79.40663862, 43.70480385 ] } },
{ "type": "Feature", "properties": { "ID": 302998, "ADDRESS_OR_INTERSECTION": "585 University Ave", "POSTAL_CODE": "M5G 2N2", "GC_LONGITUDE": -79.38914432, "GC_LATITUDE": 43.65816349 }, "geometry": { "type": "Point", "coordinates": [ -79.38914432, 43.65816349 ] } },
{ "type": "Feature", "properties": { "ID": 303016, "ADDRESS_OR_INTERSECTION": "1145 Morningside Ave", "POSTAL_CODE": "M1B 0A7", "GC_LONGITUDE": -79.19917875, "GC_LATITUDE": 43.80125262 }, "geometry": { "type": "Point", "coordinates": [ -79.19917875, 43.80125262 ] } },
{ "type": "Feature", "properties": { "ID": 303023, "ADDRESS_OR_INTERSECTION": "1473 Eglinton Ave W", "POSTAL_CODE": "M6E 2G6", "GC_LONGITUDE": -79.43925082, "GC_LATITUDE": 43.69785539 }, "geometry": { "type": "Point", "coordinates": [ -79.43925082, 43.69785539 ] } },
{ "type": "Feature", "properties": { "ID": 303028, "ADDRESS_OR_INTERSECTION": "3276 St. Clair Ave E", "POSTAL_CODE": "M1L 1W1", "GC_LONGITUDE": -79.28519623, "GC_LATITUDE": 43.71395939 }, "geometry": { "type": "Point", "coordinates": [ -79.28519623, 43.71395939 ] } },
{ "type": "Feature", "properties": { "ID": 303037, "ADDRESS_OR_INTERSECTION": "457 Parliament Street", "POSTAL_CODE": "M5A 3A3", "GC_LONGITUDE": -79.36746088, "GC_LATITUDE": 43.66367833 }, "geometry": { "type": "Point", "coordinates": [ -79.36746088, 43.66367833 ] } },
{ "type": "Feature", "properties": { "ID": 303050, "ADDRESS_OR_INTERSECTION": "2416 Danforth Ave.", "POSTAL_CODE": "M4C 1K9", "GC_LONGITUDE": -79.30502318000001, "GC_LATITUDE": 43.68775201 }, "geometry": { "type": "Point", "coordinates": [ -79.30502318, 43.68775201 ] } },
{ "type": "Feature", "properties": { "ID": 303052, "ADDRESS_OR_INTERSECTION": "750 Dundas St W", "POSTAL_CODE": "M6J 3S3", "GC_LONGITUDE": -79.40643593, "GC_LATITUDE": 43.65239427 }, "geometry": { "type": "Point", "coordinates": [ -79.40643593, 43.65239427 ] } },
{ "type": "Feature", "properties": { "ID": 303072, "ADDRESS_OR_INTERSECTION": "417 Spadina Rd", "POSTAL_CODE": "M5P 2W3", "GC_LONGITUDE": -79.4124512, "GC_LATITUDE": 43.68885867 }, "geometry": { "type": "Point", "coordinates": [ -79.4124512, 43.68885867 ] } },
{ "type": "Feature", "properties": { "ID": 303076, "ADDRESS_OR_INTERSECTION": "2737 Keele St", "POSTAL_CODE": "M3M 2E9", "GC_LONGITUDE": -79.48060673000001, "GC_LATITUDE": 43.7258079 }, "geometry": { "type": "Point", "coordinates": [ -79.48060673, 43.7258079 ] } },
{ "type": "Feature", "properties": { "ID": 303114, "ADDRESS_OR_INTERSECTION": "2394 Keele St", "POSTAL_CODE": "M6M 4A5", "GC_LONGITUDE": -79.47825983, "GC_LATITUDE": 43.70792675 }, "geometry": { "type": "Point", "coordinates": [ -79.47825983, 43.70792675 ] } },
{ "type": "Feature", "properties": { "ID": 303157, "ADDRESS_OR_INTERSECTION": "599 Parliament St", "POSTAL_CODE": "M4X 1W3", "GC_LONGITUDE": -79.36912657000001, "GC_LATITUDE": 43.66783879 }, "geometry": { "type": "Point", "coordinates": [ -79.36912657, 43.66783879 ] } },
{ "type": "Feature", "properties": { "ID": 303160, "ADDRESS_OR_INTERSECTION": "2772 Danforth Ave", "POSTAL_CODE": "M4C 1L7", "GC_LONGITUDE": -79.29698617, "GC_LATITUDE": 43.68955051 }, "geometry": { "type": "Point", "coordinates": [ -79.29698617, 43.68955051 ] } },
{ "type": "Feature", "properties": { "ID": 303161, "ADDRESS_OR_INTERSECTION": "410 Sherbourne St", "POSTAL_CODE": "M4X 1K2", "GC_LONGITUDE": -79.37419846, "GC_LATITUDE": 43.66472494 }, "geometry": { "type": "Point", "coordinates": [ -79.37419846, 43.66472494 ] } },
{ "type": "Feature", "properties": { "ID": 303192, "ADDRESS_OR_INTERSECTION": "1908 Gerrard St E", "POSTAL_CODE": "M4L 2C1", "GC_LONGITUDE": -79.31225625, "GC_LATITUDE": 43.6804614 }, "geometry": { "type": "Point", "coordinates": [ -79.31225625, 43.6804614 ] } },
{ "type": "Feature", "properties": { "ID": 303202, "ADDRESS_OR_INTERSECTION": "11 Newton Dr", "POSTAL_CODE": "M2M 2M6", "GC_LONGITUDE": -79.41778326, "GC_LATITUDE": 43.79296798 }, "geometry": { "type": "Point", "coordinates": [ -79.41778326, 43.79296798 ] } },
{ "type": "Feature", "properties": { "ID": 303219, "ADDRESS_OR_INTERSECTION": "958 Bloor St W", "POSTAL_CODE": "M6H 1L6", "GC_LONGITUDE": -79.42877538, "GC_LATITUDE": 43.66161579 }, "geometry": { "type": "Point", "coordinates": [ -79.42877538, 43.66161579 ] } },
{ "type": "Feature", "properties": { "ID": 303231, "ADDRESS_OR_INTERSECTION": "770 Lawrence Ave. W", "POSTAL_CODE": "M6A 3C6", "GC_LONGITUDE": -79.45237316, "GC_LATITUDE": 43.71520153 }, "geometry": { "type": "Point", "coordinates": [ -79.45237316, 43.71520153 ] } },
{ "type": "Feature", "properties": { "ID": 303233, "ADDRESS_OR_INTERSECTION": "3874 Bathurst St", "POSTAL_CODE": "M3H 3N3", "GC_LONGITUDE": -79.43532539, "GC_LATITUDE": 43.74120394 }, "geometry": { "type": "Point", "coordinates": [ -79.43532539, 43.74120394 ] } },
{ "type": "Feature", "properties": { "ID": 303250, "ADDRESS_OR_INTERSECTION": "3333 Brimley Rd", "POSTAL_CODE": "M1V 2J7", "GC_LONGITUDE": -79.28365708, "GC_LATITUDE": 43.82112967 }, "geometry": { "type": "Point", "coordinates": [ -79.28365708, 43.82112967 ] } },
{ "type": "Feature", "properties": { "ID": 303251, "ADDRESS_OR_INTERSECTION": "35 Lower Simcoe St", "POSTAL_CODE": "M5J 3A6", "GC_LONGITUDE": -79.38356468000001, "GC_LATITUDE": 43.64193682 }, "geometry": { "type": "Point", "coordinates": [ -79.38356468, 43.64193682 ] } },
{ "type": "Feature", "properties": { "ID": 303254, "ADDRESS_OR_INTERSECTION": "266 Donlands Ave", "POSTAL_CODE": "M4J 5B1", "GC_LONGITUDE": -79.3419083, "GC_LATITUDE": 43.68965629 }, "geometry": { "type": "Point", "coordinates": [ -79.3419083, 43.68965629 ] } },
{ "type": "Feature", "properties": { "ID": 303285, "ADDRESS_OR_INTERSECTION": "844 Bathurst St", "POSTAL_CODE": "M5R 3G1", "GC_LONGITUDE": -79.41204893, "GC_LATITUDE": 43.66628288 }, "geometry": { "type": "Point", "coordinates": [ -79.41204893, 43.66628288 ] } },
{ "type": "Feature", "properties": { "ID": 303332, "ADDRESS_OR_INTERSECTION": "2600 Eglinton Ave W", "POSTAL_CODE": "M6M 1T5", "GC_LONGITUDE": -79.47300913, "GC_LATITUDE": 43.69084776 }, "geometry": { "type": "Point", "coordinates": [ -79.47300913, 43.69084776 ] } },
{ "type": "Feature", "properties": { "ID": 303393, "ADDRESS_OR_INTERSECTION": "2010 Eglinton Ave W", "POSTAL_CODE": "M6E 2K3", "GC_LONGITUDE": -79.45551285000001, "GC_LATITUDE": 43.69485485 }, "geometry": { "type": "Point", "coordinates": [ -79.45551285, 43.69485485 ] } },
{ "type": "Feature", "properties": { "ID": 303396, "ADDRESS_OR_INTERSECTION": "622 College St", "POSTAL_CODE": "M6G 1B4", "GC_LONGITUDE": -79.4149733, "GC_LATITUDE": 43.65532478 }, "geometry": { "type": "Point", "coordinates": [ -79.4149733, 43.65532478 ] } },
{ "type": "Feature", "properties": { "ID": 303403, "ADDRESS_OR_INTERSECTION": "2355 Keele St", "POSTAL_CODE": "M6M 4A1", "GC_LONGITUDE": -79.47747814, "GC_LATITUDE": 43.70767495 }, "geometry": { "type": "Point", "coordinates": [ -79.47747814, 43.70767495 ] } },
{ "type": "Feature", "properties": { "ID": 303410, "ADDRESS_OR_INTERSECTION": "55 Dundas Street East", "POSTAL_CODE": "M5B 1C6", "GC_LONGITUDE": -79.37871459, "GC_LATITUDE": 43.65594573 }, "geometry": { "type": "Point", "coordinates": [ -79.37871459, 43.65594573 ] } },
{ "type": "Feature", "properties": { "ID": 303411, "ADDRESS_OR_INTERSECTION": "2047 Avenue Rd", "POSTAL_CODE": "M5M 4A7", "GC_LONGITUDE": -79.41975223, "GC_LATITUDE": 43.73628545 }, "geometry": { "type": "Point", "coordinates": [ -79.41975223, 43.73628545 ] } },
{ "type": "Feature", "properties": { "ID": 303413, "ADDRESS_OR_INTERSECTION": "1865 Lawrence Ave E", "POSTAL_CODE": "M1R 2Y3", "GC_LONGITUDE": -79.30226067, "GC_LATITUDE": 43.74336213 }, "geometry": { "type": "Point", "coordinates": [ -79.30226067, 43.74336213 ] } },
{ "type": "Feature", "properties": { "ID": 303427, "ADDRESS_OR_INTERSECTION": "761 King St W", "POSTAL_CODE": "M5V 1N4", "GC_LONGITUDE": -79.40585197, "GC_LATITUDE": 43.64306213 }, "geometry": { "type": "Point", "coordinates": [ -79.40585197, 43.64306213 ] } },
{ "type": "Feature", "properties": { "ID": 303435, "ADDRESS_OR_INTERSECTION": "149C Ravel Road", "POSTAL_CODE": "M2H 1T1", "GC_LONGITUDE": -79.36724946, "GC_LATITUDE": 43.7911406 }, "geometry": { "type": "Point", "coordinates": [ -79.36724946, 43.7911406 ] } },
{ "type": "Feature", "properties": { "ID": 303475, "ADDRESS_OR_INTERSECTION": "565 College St", "POSTAL_CODE": "M6G 1B2", "GC_LONGITUDE": -79.41270667000001, "GC_LATITUDE": 43.65526475 }, "geometry": { "type": "Point", "coordinates": [ -79.41270667, 43.65526475 ] } },
{ "type": "Feature", "properties": { "ID": 303487, "ADDRESS_OR_INTERSECTION": "2480 Eglinton Ave East", "POSTAL_CODE": "M1K 2R4", "GC_LONGITUDE": -79.25961533, "GC_LATITUDE": 43.73494926 }, "geometry": { "type": "Point", "coordinates": [ -79.25961533, 43.73494926 ] } },
{ "type": "Feature", "properties": { "ID": 303505, "ADDRESS_OR_INTERSECTION": "1929 Bayview Ave", "POSTAL_CODE": "M4G 3E8", "GC_LONGITUDE": -79.37752723, "GC_LATITUDE": 43.71733956 }, "geometry": { "type": "Point", "coordinates": [ -79.37752723, 43.71733956 ] } },
{ "type": "Feature", "properties": { "ID": 303523, "ADDRESS_OR_INTERSECTION": "1646 Victoria Park Ave", "POSTAL_CODE": "M1R 1P7", "GC_LONGITUDE": -79.30584849, "GC_LATITUDE": 43.73093111 }, "geometry": { "type": "Point", "coordinates": [ -79.30584849, 43.73093111 ] } },
{ "type": "Feature", "properties": { "ID": 303547, "ADDRESS_OR_INTERSECTION": "81 St Clair Ave E", "POSTAL_CODE": "M4T 1M7", "GC_LONGITUDE": -79.39036151000001, "GC_LATITUDE": 43.68867458 }, "geometry": { "type": "Point", "coordinates": [ -79.39036151, 43.68867458 ] } },
{ "type": "Feature", "properties": { "ID": 303568, "ADDRESS_OR_INTERSECTION": "99 Firvalley Court", "POSTAL_CODE": "M1L 1P2", "GC_LONGITUDE": -79.27790887, "GC_LATITUDE": 43.70335046 }, "geometry": { "type": "Point", "coordinates": [ -79.27790887, 43.70335046 ] } },
{ "type": "Feature", "properties": { "ID": 303578, "ADDRESS_OR_INTERSECTION": "1260 Kennedy Rd", "POSTAL_CODE": "M1P 2L3", "GC_LONGITUDE": -79.27843827, "GC_LATITUDE": 43.7569709 }, "geometry": { "type": "Point", "coordinates": [ -79.27843827, 43.7569709 ] } },
{ "type": "Feature", "properties": { "ID": 303592, "ADDRESS_OR_INTERSECTION": "1168A Dundas Street W", "POSTAL_CODE": "M6J 1X4", "GC_LONGITUDE": -79.42196572, "GC_LATITUDE": 43.64952176 }, "geometry": { "type": "Point", "coordinates": [ -79.42196572, 43.64952176 ] } },
{ "type": "Feature", "properties": { "ID": 303631, "ADDRESS_OR_INTERSECTION": "436 Dundas St. W", "POSTAL_CODE": "M5T 1G7", "GC_LONGITUDE": -79.39571835, "GC_LATITUDE": 43.6537564 }, "geometry": { "type": "Point", "coordinates": [ -79.39571835, 43.6537564 ] } },
{ "type": "Feature", "properties": { "ID": 303643, "ADDRESS_OR_INTERSECTION": "550 Queens Quay W", "POSTAL_CODE": "M5V 3M8", "GC_LONGITUDE": -79.39615515, "GC_LATITUDE": 43.6371859 }, "geometry": { "type": "Point", "coordinates": [ -79.39615515, 43.6371859 ] } },
{ "type": "Feature", "properties": { "ID": 303652, "ADDRESS_OR_INTERSECTION": "3094 Danforth Ave", "POSTAL_CODE": "M1L 1B1", "GC_LONGITUDE": -79.288169, "GC_LATITUDE": 43.69149 }, "geometry": { "type": "Point", "coordinates": [ -79.288169, 43.69149 ] } },
{ "type": "Feature", "properties": { "ID": 303656, "ADDRESS_OR_INTERSECTION": "801 Eglinton Ave West", "POSTAL_CODE": "M5N 1E1", "GC_LONGITUDE": -79.42449301000001, "GC_LATITUDE": 43.70103048 }, "geometry": { "type": "Point", "coordinates": [ -79.42449301, 43.70103048 ] } },
{ "type": "Feature", "properties": { "ID": 303693, "ADDRESS_OR_INTERSECTION": "25 Howard St", "POSTAL_CODE": "M4X 1J6", "GC_LONGITUDE": -79.37506162, "GC_LATITUDE": 43.67110743 }, "geometry": { "type": "Point", "coordinates": [ -79.37506162, 43.67110743 ] } },
{ "type": "Feature", "properties": { "ID": 303694, "ADDRESS_OR_INTERSECTION": "1254 Bloor St W", "POSTAL_CODE": "M6H 1N5", "GC_LONGITUDE": -79.44037356, "GC_LATITUDE": 43.6590198 }, "geometry": { "type": "Point", "coordinates": [ -79.44037356, 43.6590198 ] } },
{ "type": "Feature", "properties": { "ID": 303700, "ADDRESS_OR_INTERSECTION": "1386 Queen St W", "POSTAL_CODE": "M6K 1L7", "GC_LONGITUDE": -79.43366447, "GC_LATITUDE": 43.64139168 }, "geometry": { "type": "Point", "coordinates": [ -79.43366447, 43.64139168 ] } },
{ "type": "Feature", "properties": { "ID": 303702, "ADDRESS_OR_INTERSECTION": "1240 Bay St", "POSTAL_CODE": "Toronto", "GC_LONGITUDE": -79.390164, "GC_LATITUDE": 43.6703 }, "geometry": { "type": "Point", "coordinates": [ -79.390164, 43.6703 ] } },
{ "type": "Feature", "properties": { "ID": 303705, "ADDRESS_OR_INTERSECTION": "2830 Keele St", "POSTAL_CODE": "M3M 3E5", "GC_LONGITUDE": -79.48344298000001, "GC_LATITUDE": 43.7305081 }, "geometry": { "type": "Point", "coordinates": [ -79.48344298, 43.7305081 ] } },
{ "type": "Feature", "properties": { "ID": 303712, "ADDRESS_OR_INTERSECTION": "2978 Danforth Ave", "POSTAL_CODE": "M4C 1M6", "GC_LONGITUDE": -79.29195278, "GC_LATITUDE": 43.69062525 }, "geometry": { "type": "Point", "coordinates": [ -79.29195278, 43.69062525 ] } },
{ "type": "Feature", "properties": { "ID": 303730, "ADDRESS_OR_INTERSECTION": "2081 Lakeshore Blvd W", "POSTAL_CODE": "M8Y 3Z4", "GC_LONGITUDE": -79.47647158, "GC_LATITUDE": 43.63030136 }, "geometry": { "type": "Point", "coordinates": [ -79.47647158, 43.63030136 ] } },
{ "type": "Feature", "properties": { "ID": 303760, "ADDRESS_OR_INTERSECTION": "124 Belfield Rd", "POSTAL_CODE": "M9W 1G1", "GC_LONGITUDE": -79.57465726, "GC_LATITUDE": 43.70315033 }, "geometry": { "type": "Point", "coordinates": [ -79.57465726, 43.70315033 ] } },
{ "type": "Feature", "properties": { "ID": 303775, "ADDRESS_OR_INTERSECTION": "842 Wilson Ave", "POSTAL_CODE": "M3K 1E5", "GC_LONGITUDE": -79.46738418, "GC_LATITUDE": 43.73081245 }, "geometry": { "type": "Point", "coordinates": [ -79.46738418, 43.73081245 ] } },
{ "type": "Feature", "properties": { "ID": 303789, "ADDRESS_OR_INTERSECTION": "1001 Queen St W", "POSTAL_CODE": "M6J 1H4", "GC_LONGITUDE": -79.41808797, "GC_LATITUDE": 43.64403339 }, "geometry": { "type": "Point", "coordinates": [ -79.41808797, 43.64403339 ] } },
{ "type": "Feature", "properties": { "ID": 303818, "ADDRESS_OR_INTERSECTION": "836 Bloor St. West", "POSTAL_CODE": "M6G 1M2", "GC_LONGITUDE": -79.42379261000001, "GC_LATITUDE": 43.66258416 }, "geometry": { "type": "Point", "coordinates": [ -79.42379261, 43.66258416 ] } },
{ "type": "Feature", "properties": { "ID": 303853, "ADDRESS_OR_INTERSECTION": "2760 Yonge St", "POSTAL_CODE": "M4N 2J2", "GC_LONGITUDE": -79.40123194, "GC_LATITUDE": 43.7186666 }, "geometry": { "type": "Point", "coordinates": [ -79.40123194, 43.7186666 ] } },
{ "type": "Feature", "properties": { "ID": 303878, "ADDRESS_OR_INTERSECTION": "481 Dundas St W", "POSTAL_CODE": "M5T 1H1", "GC_LONGITUDE": -79.39724958, "GC_LATITUDE": 43.65300069 }, "geometry": { "type": "Point", "coordinates": [ -79.39724958, 43.65300069 ] } },
{ "type": "Feature", "properties": { "ID": 303879, "ADDRESS_OR_INTERSECTION": "909 Queen St E", "POSTAL_CODE": "M4M 1J4", "GC_LONGITUDE": -79.34149527, "GC_LATITUDE": 43.66054315 }, "geometry": { "type": "Point", "coordinates": [ -79.34149527, 43.66054315 ] } },
{ "type": "Feature", "properties": { "ID": 303891, "ADDRESS_OR_INTERSECTION": "399 Church St.", "POSTAL_CODE": "M5B 2J6", "GC_LONGITUDE": -79.37893655000001, "GC_LATITUDE": 43.66179349 }, "geometry": { "type": "Point", "coordinates": [ -79.37893655, 43.66179349 ] } },
{ "type": "Feature", "properties": { "ID": 303901, "ADDRESS_OR_INTERSECTION": "1068 Danforth Avenue", "POSTAL_CODE": "M4J 1M2", "GC_LONGITUDE": -79.33564622, "GC_LATITUDE": 43.68106242 }, "geometry": { "type": "Point", "coordinates": [ -79.33564622, 43.68106242 ] } },
{ "type": "Feature", "properties": { "ID": 303922, "ADDRESS_OR_INTERSECTION": "5113 Sheppard Ave E", "POSTAL_CODE": "Toronto", "GC_LONGITUDE": -79.376342, "GC_LATITUDE": 43.652804 }, "geometry": { "type": "Point", "coordinates": [ -79.376342, 43.652804 ] } },
{ "type": "Feature", "properties": { "ID": 303924, "ADDRESS_OR_INTERSECTION": "721 Gerrard St E", "POSTAL_CODE": "M4M 1Y5", "GC_LONGITUDE": -79.34781639000001, "GC_LATITUDE": 43.66633643 }, "geometry": { "type": "Point", "coordinates": [ -79.34781639, 43.66633643 ] } },
{ "type": "Feature", "properties": { "ID": 303933, "ADDRESS_OR_INTERSECTION": "1575 Jane Street", "POSTAL_CODE": "M9N 2R3", "GC_LONGITUDE": -79.5023861, "GC_LATITUDE": 43.69919699 }, "geometry": { "type": "Point", "coordinates": [ -79.5023861, 43.69919699 ] } },
{ "type": "Feature", "properties": { "ID": 303937, "ADDRESS_OR_INTERSECTION": "3245 Finch Ave E", "POSTAL_CODE": "M1W 4C1", "GC_LONGITUDE": -79.3200382, "GC_LATITUDE": 43.79533717 }, "geometry": { "type": "Point", "coordinates": [ -79.3200382, 43.79533717 ] } },
{ "type": "Feature", "properties": { "ID": 303946, "ADDRESS_OR_INTERSECTION": "332 Oakwood Ave", "POSTAL_CODE": "M6E 2V9", "GC_LONGITUDE": -79.43851019, "GC_LATITUDE": 43.68604686 }, "geometry": { "type": "Point", "coordinates": [ -79.43851019, 43.68604686 ] } },
{ "type": "Feature", "properties": { "ID": 303955, "ADDRESS_OR_INTERSECTION": "245 Eglinton Ave    E ", "POSTAL_CODE": "M4P 3B7", "GC_LONGITUDE": -79.38954788, "GC_LATITUDE": 43.70826064 }, "geometry": { "type": "Point", "coordinates": [ -79.38954788, 43.70826064 ] } },
{ "type": "Feature", "properties": { "ID": 303996, "ADDRESS_OR_INTERSECTION": "20 Wynford Drive", "POSTAL_CODE": "M3C 1J4", "GC_LONGITUDE": -79.33632887, "GC_LATITUDE": 43.72396733 }, "geometry": { "type": "Point", "coordinates": [ -79.33632887, 43.72396733 ] } },
{ "type": "Feature", "properties": { "ID": 303997, "ADDRESS_OR_INTERSECTION": "3757 Keele St", "POSTAL_CODE": "M3J 1N4", "GC_LONGITUDE": -79.48890534, "GC_LATITUDE": 43.75782484 }, "geometry": { "type": "Point", "coordinates": [ -79.48890534, 43.75782484 ] } },
{ "type": "Feature", "properties": { "ID": 304025, "ADDRESS_OR_INTERSECTION": "125 Norfinch Dr", "POSTAL_CODE": "M3N 1W8", "GC_LONGITUDE": -79.52885245, "GC_LATITUDE": 43.76259458 }, "geometry": { "type": "Point", "coordinates": [ -79.52885245, 43.76259458 ] } },
{ "type": "Feature", "properties": { "ID": 304037, "ADDRESS_OR_INTERSECTION": "2045 Dufferin St", "POSTAL_CODE": "M6E 3R4", "GC_LONGITUDE": -79.44620286, "GC_LATITUDE": 43.68644277 }, "geometry": { "type": "Point", "coordinates": [ -79.44620286, 43.68644277 ] } },
{ "type": "Feature", "properties": { "ID": 304065, "ADDRESS_OR_INTERSECTION": "56 Westmore Drive", "POSTAL_CODE": "M9V 1C3", "GC_LONGITUDE": -79.60373183, "GC_LATITUDE": 43.73989258 }, "geometry": { "type": "Point", "coordinates": [ -79.60373183, 43.73989258 ] } },
{ "type": "Feature", "properties": { "ID": 304069, "ADDRESS_OR_INTERSECTION": "2209 Bloor St W", "POSTAL_CODE": "M6S 1N5", "GC_LONGITUDE": -79.47579343, "GC_LATITUDE": 43.65103032 }, "geometry": { "type": "Point", "coordinates": [ -79.47579343, 43.65103032 ] } },
{ "type": "Feature", "properties": { "ID": 304097, "ADDRESS_OR_INTERSECTION": "2306 Keele Street", "POSTAL_CODE": "M6M 3Z8", "GC_LONGITUDE": -79.47717637, "GC_LATITUDE": 43.70334276 }, "geometry": { "type": "Point", "coordinates": [ -79.47717637, 43.70334276 ] } },
{ "type": "Feature", "properties": { "ID": 304152, "ADDRESS_OR_INTERSECTION": "1111 Finch Ave W", "POSTAL_CODE": "M3J 2E5", "GC_LONGITUDE": -79.47392959, "GC_LATITUDE": 43.76595048 }, "geometry": { "type": "Point", "coordinates": [ -79.47392959, 43.76595048 ] } },
{ "type": "Feature", "properties": { "ID": 304163, "ADDRESS_OR_INTERSECTION": "5359 Dundas St W", "POSTAL_CODE": "M9B 1B1", "GC_LONGITUDE": -79.53991279, "GC_LATITUDE": 43.63575863 }, "geometry": { "type": "Point", "coordinates": [ -79.53991279, 43.63575863 ] } },
{ "type": "Feature", "properties": { "ID": 304186, "ADDRESS_OR_INTERSECTION": "2883 Danforth Avenue", "POSTAL_CODE": "M4C 1M3", "GC_LONGITUDE": -79.29455116, "GC_LATITUDE": 43.68966193 }, "geometry": { "type": "Point", "coordinates": [ -79.29455116, 43.68966193 ] } },
{ "type": "Feature", "properties": { "ID": 304194, "ADDRESS_OR_INTERSECTION": "2 Champagne Drive", "POSTAL_CODE": "M3J 2C5", "GC_LONGITUDE": -79.47234025, "GC_LATITUDE": 43.76642706 }, "geometry": { "type": "Point", "coordinates": [ -79.47234025, 43.76642706 ] } },
{ "type": "Feature", "properties": { "ID": 304199, "ADDRESS_OR_INTERSECTION": "620 Keele St", "POSTAL_CODE": "M6N 3E2", "GC_LONGITUDE": -79.46785467, "GC_LATITUDE": 43.67160775 }, "geometry": { "type": "Point", "coordinates": [ -79.46785467, 43.67160775 ] } },
{ "type": "Feature", "properties": { "ID": 304224, "ADDRESS_OR_INTERSECTION": "1290 Bloor Street West", "POSTAL_CODE": "M6H 1N9", "GC_LONGITUDE": -79.44203742000001, "GC_LATITUDE": 43.65865399 }, "geometry": { "type": "Point", "coordinates": [ -79.44203742, 43.65865399 ] } },
{ "type": "Feature", "properties": { "ID": 304231, "ADDRESS_OR_INTERSECTION": "3424 Weston Rd", "POSTAL_CODE": "M9M 2W1", "GC_LONGITUDE": -79.54239103, "GC_LATITUDE": 43.75044831 }, "geometry": { "type": "Point", "coordinates": [ -79.54239103, 43.75044831 ] } },
{ "type": "Feature", "properties": { "ID": 304256, "ADDRESS_OR_INTERSECTION": "390 Queens Quay W", "POSTAL_CODE": "M5V 3A6", "GC_LONGITUDE": -79.39068763, "GC_LATITUDE": 43.6381328 }, "geometry": { "type": "Point", "coordinates": [ -79.39068763, 43.6381328 ] } },
{ "type": "Feature", "properties": { "ID": 304260, "ADDRESS_OR_INTERSECTION": "77 Provost Dr", "POSTAL_CODE": "M2K 0B7", "GC_LONGITUDE": -79.37047325, "GC_LATITUDE": 43.76915976 }, "geometry": { "type": "Point", "coordinates": [ -79.37047325, 43.76915976 ] } },
{ "type": "Feature", "properties": { "ID": 304323, "ADDRESS_OR_INTERSECTION": "1450 O'Connor Drive", "POSTAL_CODE": "M4B 2T8", "GC_LONGITUDE": -79.30680033, "GC_LATITUDE": 43.71366175 }, "geometry": { "type": "Point", "coordinates": [ -79.30680033, 43.71366175 ] } },
{ "type": "Feature", "properties": { "ID": 304324, "ADDRESS_OR_INTERSECTION": "1173 Queen St W", "POSTAL_CODE": "M6J 1J4", "GC_LONGITUDE": -79.42601192, "GC_LATITUDE": 43.64258969 }, "geometry": { "type": "Point", "coordinates": [ -79.42601192, 43.64258969 ] } },
{ "type": "Feature", "properties": { "ID": 304336, "ADDRESS_OR_INTERSECTION": "589 King St E", "POSTAL_CODE": "M5A 1M6", "GC_LONGITUDE": -79.35645346, "GC_LATITUDE": 43.65640525 }, "geometry": { "type": "Point", "coordinates": [ -79.35645346, 43.65640525 ] } },
{ "type": "Feature", "properties": { "ID": 304398, "ADDRESS_OR_INTERSECTION": "718 Yonge St", "POSTAL_CODE": "M4Y 2B3", "GC_LONGITUDE": -79.38626668000001, "GC_LATITUDE": 43.66836969 }, "geometry": { "type": "Point", "coordinates": [ -79.38626668, 43.66836969 ] } },
{ "type": "Feature", "properties": { "ID": 304403, "ADDRESS_OR_INTERSECTION": "28 Overlea Blvd", "POSTAL_CODE": "M4H 1B6", "GC_LONGITUDE": -79.35000781, "GC_LATITUDE": 43.70554064 }, "geometry": { "type": "Point", "coordinates": [ -79.35000781, 43.70554064 ] } },
{ "type": "Feature", "properties": { "ID": 304419, "ADDRESS_OR_INTERSECTION": "75 Lesmill Rd", "POSTAL_CODE": "M3B 2T8", "GC_LONGITUDE": -79.35642076000001, "GC_LATITUDE": 43.75912192 }, "geometry": { "type": "Point", "coordinates": [ -79.35642076, 43.75912192 ] } },
{ "type": "Feature", "properties": { "ID": 304435, "ADDRESS_OR_INTERSECTION": "170 Fort York Blvd", "POSTAL_CODE": "M5V 0E6", "GC_LONGITUDE": -79.39978624, "GC_LATITUDE": 43.63939414 }, "geometry": { "type": "Point", "coordinates": [ -79.39978624, 43.63939414 ] } },
{ "type": "Feature", "properties": { "ID": 304436, "ADDRESS_OR_INTERSECTION": "500 King St W", "POSTAL_CODE": "M5V 1L9", "GC_LONGITUDE": -79.39680837, "GC_LATITUDE": 43.64532424 }, "geometry": { "type": "Point", "coordinates": [ -79.39680837, 43.64532424 ] } },
{ "type": "Feature", "properties": { "ID": 304446, "ADDRESS_OR_INTERSECTION": "2223 Bloor St W", "POSTAL_CODE": "M6S 1N7", "GC_LONGITUDE": -79.47647642, "GC_LATITUDE": 43.65093791 }, "geometry": { "type": "Point", "coordinates": [ -79.47647642, 43.65093791 ] } },
{ "type": "Feature", "properties": { "ID": 304447, "ADDRESS_OR_INTERSECTION": "449 Queen St W", "POSTAL_CODE": "M5V 2A9", "GC_LONGITUDE": -79.39690479, "GC_LATITUDE": 43.64848563 }, "geometry": { "type": "Point", "coordinates": [ -79.39690479, 43.64848563 ] } },
{ "type": "Feature", "properties": { "ID": 304488, "ADDRESS_OR_INTERSECTION": "255 Broadview Ave", "POSTAL_CODE": "M4M 2G6", "GC_LONGITUDE": -79.35118605, "GC_LATITUDE": 43.66296044 }, "geometry": { "type": "Point", "coordinates": [ -79.35118605, 43.66296044 ] } },
{ "type": "Feature", "properties": { "ID": 304497, "ADDRESS_OR_INTERSECTION": "1967 Queen St E", "POSTAL_CODE": "M4L 1H9", "GC_LONGITUDE": -79.30146094, "GC_LATITUDE": 43.66956505 }, "geometry": { "type": "Point", "coordinates": [ -79.30146094, 43.66956505 ] } },
{ "type": "Feature", "properties": { "ID": 304516, "ADDRESS_OR_INTERSECTION": "685 Kennedy Rd", "POSTAL_CODE": "M1K 2B8", "GC_LONGITUDE": -79.26554078, "GC_LATITUDE": 43.72725021 }, "geometry": { "type": "Point", "coordinates": [ -79.26554078, 43.72725021 ] } },
{ "type": "Feature", "properties": { "ID": 304523, "ADDRESS_OR_INTERSECTION": "499 College St", "POSTAL_CODE": "M6G 1A5", "GC_LONGITUDE": -79.40969253, "GC_LATITUDE": 43.65577762 }, "geometry": { "type": "Point", "coordinates": [ -79.40969253, 43.65577762 ] } },
{ "type": "Feature", "properties": { "ID": 304535, "ADDRESS_OR_INTERSECTION": "1920 Yonge St", "POSTAL_CODE": "M4S 3E2", "GC_LONGITUDE": -79.39728018, "GC_LATITUDE": 43.69877947 }, "geometry": { "type": "Point", "coordinates": [ -79.39728018, 43.69877947 ] } },
{ "type": "Feature", "properties": { "ID": 304585, "ADDRESS_OR_INTERSECTION": "403 Parliament St", "POSTAL_CODE": "M5A 3A1", "GC_LONGITUDE": -79.36687793, "GC_LATITUDE": 43.66216542 }, "geometry": { "type": "Point", "coordinates": [ -79.36687793, 43.66216542 ] } },
{ "type": "Feature", "properties": { "ID": 304601, "ADDRESS_OR_INTERSECTION": "524 Queen St W", "POSTAL_CODE": "M5V 2B5", "GC_LONGITUDE": -79.40233593000001, "GC_LATITUDE": 43.6478024 }, "geometry": { "type": "Point", "coordinates": [ -79.40233593, 43.6478024 ] } },
{ "type": "Feature", "properties": { "ID": 304605, "ADDRESS_OR_INTERSECTION": "2688 Danforth Ave", "POSTAL_CODE": "M4C 1L7", "GC_LONGITUDE": -79.29883558, "GC_LATITUDE": 43.68904931 }, "geometry": { "type": "Point", "coordinates": [ -79.29883558, 43.68904931 ] } },
{ "type": "Feature", "properties": { "ID": 304613, "ADDRESS_OR_INTERSECTION": "795 Broadview Ave", "POSTAL_CODE": "M4K 2P8", "GC_LONGITUDE": -79.35832244, "GC_LATITUDE": 43.67770978 }, "geometry": { "type": "Point", "coordinates": [ -79.35832244, 43.67770978 ] } },
{ "type": "Feature", "properties": { "ID": 304700, "ADDRESS_OR_INTERSECTION": "743 Broadview Ave", "POSTAL_CODE": "M4K 2P6", "GC_LONGITUDE": -79.35809677, "GC_LATITUDE": 43.6757904 }, "geometry": { "type": "Point", "coordinates": [ -79.35809677, 43.6757904 ] } },
{ "type": "Feature", "properties": { "ID": 304713, "ADDRESS_OR_INTERSECTION": "1488 Queen St W", "POSTAL_CODE": "M6K 1M4", "GC_LONGITUDE": -79.4377157, "GC_LATITUDE": 43.6406585 }, "geometry": { "type": "Point", "coordinates": [ -79.4377157, 43.6406585 ] } },
{ "type": "Feature", "properties": { "ID": 304727, "ADDRESS_OR_INTERSECTION": "209 Ellesmere Rd", "POSTAL_CODE": "M1R 4E2", "GC_LONGITUDE": -79.30296244, "GC_LATITUDE": 43.76046396 }, "geometry": { "type": "Point", "coordinates": [ -79.30296244, 43.76046396 ] } },
{ "type": "Feature", "properties": { "ID": 304774, "ADDRESS_OR_INTERSECTION": "1351 Yonge St", "POSTAL_CODE": "M4T 1X9", "GC_LONGITUDE": -79.39300402000001, "GC_LATITUDE": 43.686104 }, "geometry": { "type": "Point", "coordinates": [ -79.39300402, 43.686104 ] } },
{ "type": "Feature", "properties": { "ID": 304775, "ADDRESS_OR_INTERSECTION": "1670 Dufferin St", "POSTAL_CODE": "M6H 3M2", "GC_LONGITUDE": -79.44324906, "GC_LATITUDE": 43.67741415 }, "geometry": { "type": "Point", "coordinates": [ -79.44324906, 43.67741415 ] } },
{ "type": "Feature", "properties": { "ID": 304790, "ADDRESS_OR_INTERSECTION": "343 College St", "POSTAL_CODE": "M5T 1S5", "GC_LONGITUDE": -79.40323399, "GC_LATITUDE": 43.65712503 }, "geometry": { "type": "Point", "coordinates": [ -79.40323399, 43.65712503 ] } },
{ "type": "Feature", "properties": { "ID": 304795, "ADDRESS_OR_INTERSECTION": "69 Yonge St", "POSTAL_CODE": "M5E 1K3", "GC_LONGITUDE": -79.37753645, "GC_LATITUDE": 43.64892786 }, "geometry": { "type": "Point", "coordinates": [ -79.37753645, 43.64892786 ] } },
{ "type": "Feature", "properties": { "ID": 304799, "ADDRESS_OR_INTERSECTION": "593 Dundas St E", "POSTAL_CODE": "M5A 0C7", "GC_LONGITUDE": -79.3612729, "GC_LATITUDE": 43.66030581 }, "geometry": { "type": "Point", "coordinates": [ -79.3612729, 43.66030581 ] } },
{ "type": "Feature", "properties": { "ID": 304821, "ADDRESS_OR_INTERSECTION": "1881 Yonge St", "POSTAL_CODE": "M4S 3C4", "GC_LONGITUDE": -79.39605811, "GC_LATITUDE": 43.69772865 }, "geometry": { "type": "Point", "coordinates": [ -79.39605811, 43.69772865 ] } },
{ "type": "Feature", "properties": { "ID": 304834, "ADDRESS_OR_INTERSECTION": "688 Coxwell Ave", "POSTAL_CODE": "M4C 3B7", "GC_LONGITUDE": -79.32369793, "GC_LATITUDE": 43.68263375 }, "geometry": { "type": "Point", "coordinates": [ -79.32369793, 43.68263375 ] } },
{ "type": "Feature", "properties": { "ID": 304835, "ADDRESS_OR_INTERSECTION": "997 Gerrard St E", "POSTAL_CODE": "M4M 1Z4", "GC_LONGITUDE": -79.3380462, "GC_LATITUDE": 43.66848739 }, "geometry": { "type": "Point", "coordinates": [ -79.3380462, 43.66848739 ] } },
{ "type": "Feature", "properties": { "ID": 304966, "ADDRESS_OR_INTERSECTION": "290 Shuter St", "POSTAL_CODE": "M5A 1W7", "GC_LONGITUDE": -79.36557716, "GC_LATITUDE": 43.65698971 }, "geometry": { "type": "Point", "coordinates": [ -79.36557716, 43.65698971 ] } },
{ "type": "Feature", "properties": { "ID": 304980, "ADDRESS_OR_INTERSECTION": "18 Yonge St", "POSTAL_CODE": "M5E 1Z8", "GC_LONGITUDE": -79.37647732000001, "GC_LATITUDE": 43.64454121 }, "geometry": { "type": "Point", "coordinates": [ -79.37647732, 43.64454121 ] } },
{ "type": "Feature", "properties": { "ID": 305080, "ADDRESS_OR_INTERSECTION": "65 Overlea Blvd", "POSTAL_CODE": "M4H 1P1", "GC_LONGITUDE": -79.34265487, "GC_LATITUDE": 43.70736138 }, "geometry": { "type": "Point", "coordinates": [ -79.34265487, 43.70736138 ] } },
{ "type": "Feature", "properties": { "ID": 305090, "ADDRESS_OR_INTERSECTION": "2000 Queen St E", "POSTAL_CODE": "M4L 1J2", "GC_LONGITUDE": -79.30018612000001, "GC_LATITUDE": 43.67017571 }, "geometry": { "type": "Point", "coordinates": [ -79.30018612, 43.67017571 ] } },
{ "type": "Feature", "properties": { "ID": 305097, "ADDRESS_OR_INTERSECTION": "1859 Leslie Street", "POSTAL_CODE": "M3B 2M1", "GC_LONGITUDE": -79.35962842000001, "GC_LATITUDE": 43.75457642 }, "geometry": { "type": "Point", "coordinates": [ -79.35962842, 43.75457642 ] } },
{ "type": "Feature", "properties": { "ID": 305190, "ADDRESS_OR_INTERSECTION": "130 Kingston Rd", "POSTAL_CODE": "M4L 1S7", "GC_LONGITUDE": -79.31135102, "GC_LATITUDE": 43.67050993 }, "geometry": { "type": "Point", "coordinates": [ -79.31135102, 43.67050993 ] } },
{ "type": "Feature", "properties": { "ID": 305194, "ADDRESS_OR_INTERSECTION": "3446 Dundas St W", "POSTAL_CODE": "M6S 2S1", "GC_LONGITUDE": -79.48660882, "GC_LATITUDE": 43.66587863 }, "geometry": { "type": "Point", "coordinates": [ -79.48660882, 43.66587863 ] } },
{ "type": "Feature", "properties": { "ID": 305219, "ADDRESS_OR_INTERSECTION": "30 Bond St", "POSTAL_CODE": "M5B 1W8", "GC_LONGITUDE": -79.37768251, "GC_LATITUDE": 43.65365547 }, "geometry": { "type": "Point", "coordinates": [ -79.37768251, 43.65365547 ] } },
{ "type": "Feature", "properties": { "ID": 305221, "ADDRESS_OR_INTERSECTION": "555 University Ave", "POSTAL_CODE": "M5G 1X8", "GC_LONGITUDE": -79.38743746, "GC_LATITUDE": 43.65737215 }, "geometry": { "type": "Point", "coordinates": [ -79.38743746, 43.65737215 ] } },
{ "type": "Feature", "properties": { "ID": 305227, "ADDRESS_OR_INTERSECTION": "1840 Eglinton Ave W", "POSTAL_CODE": "M6E 2J4", "GC_LONGITUDE": -79.45087401000001, "GC_LATITUDE": 43.69580888 }, "geometry": { "type": "Point", "coordinates": [ -79.45087401, 43.69580888 ] } },
{ "type": "Feature", "properties": { "ID": 305244, "ADDRESS_OR_INTERSECTION": "440 Browns Line", "POSTAL_CODE": "M8W 3T9", "GC_LONGITUDE": -79.54575814, "GC_LATITUDE": 43.60196066 }, "geometry": { "type": "Point", "coordinates": [ -79.54575814, 43.60196066 ] } },
{ "type": "Feature", "properties": { "ID": 305246, "ADDRESS_OR_INTERSECTION": "807 Broadview Ave", "POSTAL_CODE": "M4K 2P8", "GC_LONGITUDE": -79.35820273, "GC_LATITUDE": 43.67793332 }, "geometry": { "type": "Point", "coordinates": [ -79.35820273, 43.67793332 ] } },
{ "type": "Feature", "properties": { "ID": 305250, "ADDRESS_OR_INTERSECTION": "249 Marlee Ave", "POSTAL_CODE": "M6B 4B8", "GC_LONGITUDE": -79.44211231, "GC_LATITUDE": 43.70588251 }, "geometry": { "type": "Point", "coordinates": [ -79.44211231, 43.70588251 ] } },
{ "type": "Feature", "properties": { "ID": 305288, "ADDRESS_OR_INTERSECTION": "63 Wellesley St E", "POSTAL_CODE": "M4Y 1G7", "GC_LONGITUDE": -79.38131824, "GC_LATITUDE": 43.66543661 }, "geometry": { "type": "Point", "coordinates": [ -79.38131824, 43.66543661 ] } },
{ "type": "Feature", "properties": { "ID": 305291, "ADDRESS_OR_INTERSECTION": "539 Parliament St", "POSTAL_CODE": "M4X 1P7", "GC_LONGITUDE": -79.36847237000001, "GC_LATITUDE": 43.66604078 }, "geometry": { "type": "Point", "coordinates": [ -79.36847237, 43.66604078 ] } },
{ "type": "Feature", "properties": { "ID": 305292, "ADDRESS_OR_INTERSECTION": "595 Bay St", "POSTAL_CODE": "M5G 2C2", "GC_LONGITUDE": -79.38330106, "GC_LATITUDE": 43.65622103 }, "geometry": { "type": "Point", "coordinates": [ -79.38330106, 43.65622103 ] } },
{ "type": "Feature", "properties": { "ID": 305293, "ADDRESS_OR_INTERSECTION": "393 Spadina Rd", "POSTAL_CODE": "M5P 2W1", "GC_LONGITUDE": -79.41238387, "GC_LATITUDE": 43.68850195 }, "geometry": { "type": "Point", "coordinates": [ -79.41238387, 43.68850195 ] } },
{ "type": "Feature", "properties": { "ID": 305294, "ADDRESS_OR_INTERSECTION": "2409 Dufferin St", "POSTAL_CODE": "M6E 3X7", "GC_LONGITUDE": -79.45072166, "GC_LATITUDE": 43.69753619 }, "geometry": { "type": "Point", "coordinates": [ -79.45072166, 43.69753619 ] } },
{ "type": "Feature", "properties": { "ID": 305295, "ADDRESS_OR_INTERSECTION": "1725 Avenue Rd", "POSTAL_CODE": "M5M 3Y5", "GC_LONGITUDE": -79.41786672000001, "GC_LATITUDE": 43.72873314 }, "geometry": { "type": "Point", "coordinates": [ -79.41786672, 43.72873314 ] } },
{ "type": "Feature", "properties": { "ID": 305297, "ADDRESS_OR_INTERSECTION": "4789 Yonge St", "POSTAL_CODE": "M2N 0G3", "GC_LONGITUDE": -79.41016374, "GC_LATITUDE": 43.76134607 }, "geometry": { "type": "Point", "coordinates": [ -79.41016374, 43.76134607 ] } },
{ "type": "Feature", "properties": { "ID": 305309, "ADDRESS_OR_INTERSECTION": "2300 Yonge St", "POSTAL_CODE": "M4P 1E4", "GC_LONGITUDE": -79.39908353, "GC_LATITUDE": 43.70715757 }, "geometry": { "type": "Point", "coordinates": [ -79.39908353, 43.70715757 ] } },
{ "type": "Feature", "properties": { "ID": 305323, "ADDRESS_OR_INTERSECTION": "474 Spadina Ave", "POSTAL_CODE": "M5T 2G8", "GC_LONGITUDE": -79.40037723, "GC_LATITUDE": 43.65773103 }, "geometry": { "type": "Point", "coordinates": [ -79.40037723, 43.65773103 ] } },
{ "type": "Feature", "properties": { "ID": 305327, "ADDRESS_OR_INTERSECTION": "250 University Ave", "POSTAL_CODE": "M5H 3E5", "GC_LONGITUDE": -79.38702185, "GC_LATITUDE": 43.65042205 }, "geometry": { "type": "Point", "coordinates": [ -79.38702185, 43.65042205 ] } },
{ "type": "Feature", "properties": { "ID": 305328, "ADDRESS_OR_INTERSECTION": "1421 Dundas St W", "POSTAL_CODE": "M6J 1Y4", "GC_LONGITUDE": -79.42927722, "GC_LATITUDE": 43.64937058 }, "geometry": { "type": "Point", "coordinates": [ -79.42927722, 43.64937058 ] } },
{ "type": "Feature", "properties": { "ID": 305329, "ADDRESS_OR_INTERSECTION": "87 Avenue Rd", "POSTAL_CODE": "M5R 3R9", "GC_LONGITUDE": -79.3951885, "GC_LATITUDE": 43.67202526 }, "geometry": { "type": "Point", "coordinates": [ -79.3951885, 43.67202526 ] } },
{ "type": "Feature", "properties": { "ID": 305341, "ADDRESS_OR_INTERSECTION": "1245 Dupont St", "POSTAL_CODE": "M6H 2A6", "GC_LONGITUDE": -79.44175752, "GC_LATITUDE": 43.66751822 }, "geometry": { "type": "Point", "coordinates": [ -79.44175752, 43.66751822 ] } },
{ "type": "Feature", "properties": { "ID": 305359, "ADDRESS_OR_INTERSECTION": "901 Eglinton Ave W", "POSTAL_CODE": "M6C 2C1", "GC_LONGITUDE": -79.42750585, "GC_LATITUDE": 43.7004845 }, "geometry": { "type": "Point", "coordinates": [ -79.42750585, 43.7004845 ] } },
{ "type": "Feature", "properties": { "ID": 305374, "ADDRESS_OR_INTERSECTION": "3701 Lakeshore Blvd W", "POSTAL_CODE": "M8W 1P8", "GC_LONGITUDE": -79.53843069, "GC_LATITUDE": 43.59299828 }, "geometry": { "type": "Point", "coordinates": [ -79.53843069, 43.59299828 ] } },
{ "type": "Feature", "properties": { "ID": 305391, "ADDRESS_OR_INTERSECTION": "600 University Ave", "POSTAL_CODE": "M5G 1X5", "GC_LONGITUDE": -79.3904451, "GC_LATITUDE": 43.65753641 }, "geometry": { "type": "Point", "coordinates": [ -79.3904451, 43.65753641 ] } },
{ "type": "Feature", "properties": { "ID": 305393, "ADDRESS_OR_INTERSECTION": "199 Bay St", "POSTAL_CODE": "M5L 1E7", "GC_LONGITUDE": -79.37956515, "GC_LATITUDE": 43.64823459 }, "geometry": { "type": "Point", "coordinates": [ -79.37956515, 43.64823459 ] } },
{ "type": "Feature", "properties": { "ID": 305403, "ADDRESS_OR_INTERSECTION": "55 Bloor St W", "POSTAL_CODE": "M4W 1A5", "GC_LONGITUDE": -79.38868796, "GC_LATITUDE": 43.66964117 }, "geometry": { "type": "Point", "coordinates": [ -79.38868796, 43.66964117 ] } },
{ "type": "Feature", "properties": { "ID": 305411, "ADDRESS_OR_INTERSECTION": "345 Bloor St E", "POSTAL_CODE": "M4W 3J6", "GC_LONGITUDE": -79.37797924, "GC_LATITUDE": 43.67154286 }, "geometry": { "type": "Point", "coordinates": [ -79.37797924, 43.67154286 ] } },
{ "type": "Feature", "properties": { "ID": 305414, "ADDRESS_OR_INTERSECTION": "325 Moore Ave", "POSTAL_CODE": "M4G 3T6", "GC_LONGITUDE": -79.36950845, "GC_LATITUDE": 43.69696902 }, "geometry": { "type": "Point", "coordinates": [ -79.36950845, 43.69696902 ] } },
{ "type": "Feature", "properties": { "ID": 305427, "ADDRESS_OR_INTERSECTION": "660 Eglinton Ave E", "POSTAL_CODE": "M4G 2K2", "GC_LONGITUDE": -79.37621066, "GC_LATITUDE": 43.71175889 }, "geometry": { "type": "Point", "coordinates": [ -79.37621066, 43.71175889 ] } },
{ "type": "Feature", "properties": { "ID": 305435, "ADDRESS_OR_INTERSECTION": "777 Bay St", "POSTAL_CODE": "M5G 2C8", "GC_LONGITUDE": -79.38538208, "GC_LATITUDE": 43.66064293 }, "geometry": { "type": "Point", "coordinates": [ -79.38538208, 43.66064293 ] } },
{ "type": "Feature", "properties": { "ID": 305439, "ADDRESS_OR_INTERSECTION": "200 Wellington St W", "POSTAL_CODE": "M5V 3C7", "GC_LONGITUDE": -79.38784946, "GC_LATITUDE": 43.6458617 }, "geometry": { "type": "Point", "coordinates": [ -79.38784946, 43.6458617 ] } },
{ "type": "Feature", "properties": { "ID": 305441, "ADDRESS_OR_INTERSECTION": "120 Adelaide St W", "POSTAL_CODE": "M5H 1T1", "GC_LONGITUDE": -79.38320322, "GC_LATITUDE": 43.6500138 }, "geometry": { "type": "Point", "coordinates": [ -79.38320322, 43.6500138 ] } },
{ "type": "Feature", "properties": { "ID": 305443, "ADDRESS_OR_INTERSECTION": "3402 Yonge St", "POSTAL_CODE": "M4N 2M9", "GC_LONGITUDE": -79.40451173, "GC_LATITUDE": 43.73299384 }, "geometry": { "type": "Point", "coordinates": [ -79.40451173, 43.73299384 ] } },
{ "type": "Feature", "properties": { "ID": 305444, "ADDRESS_OR_INTERSECTION": "288 Sheppard Ave E", "POSTAL_CODE": "M2N 3B1", "GC_LONGITUDE": -79.39801176, "GC_LATITUDE": 43.7646514 }, "geometry": { "type": "Point", "coordinates": [ -79.39801176, 43.7646514 ] } },
{ "type": "Feature", "properties": { "ID": 305447, "ADDRESS_OR_INTERSECTION": "100 King Street", "POSTAL_CODE": "M5X 1C8", "GC_LONGITUDE": -79.51616653000001, "GC_LATITUDE": 43.70586777 }, "geometry": { "type": "Point", "coordinates": [ -79.51616653, 43.70586777 ] } },
{ "type": "Feature", "properties": { "ID": 305478, "ADDRESS_OR_INTERSECTION": "63 Front St E", "POSTAL_CODE": "M5E 1B3", "GC_LONGITUDE": -79.3738674, "GC_LATITUDE": 43.64817413 }, "geometry": { "type": "Point", "coordinates": [ -79.3738674, 43.64817413 ] } },
{ "type": "Feature", "properties": { "ID": 305480, "ADDRESS_OR_INTERSECTION": "159 Yonge St", "POSTAL_CODE": "M5C 1X7", "GC_LONGITUDE": -79.37885765, "GC_LATITUDE": 43.65197713 }, "geometry": { "type": "Point", "coordinates": [ -79.37885765, 43.65197713 ] } },
{ "type": "Feature", "properties": { "ID": 305482, "ADDRESS_OR_INTERSECTION": "88 Queens Quay West", "POSTAL_CODE": "M5J 0B8", "GC_LONGITUDE": -79.37870739, "GC_LATITUDE": 43.64084997 }, "geometry": { "type": "Point", "coordinates": [ -79.37870739, 43.64084997 ] } },
{ "type": "Feature", "properties": { "ID": 305483, "ADDRESS_OR_INTERSECTION": "76 Grenville St", "POSTAL_CODE": "M5S 1B2", "GC_LONGITUDE": -79.38737861, "GC_LATITUDE": 43.66151718 }, "geometry": { "type": "Point", "coordinates": [ -79.38737861, 43.66151718 ] } },
{ "type": "Feature", "properties": { "ID": 305485, "ADDRESS_OR_INTERSECTION": "1235 Wilson Ave", "POSTAL_CODE": "M3M 0B2", "GC_LONGITUDE": -79.48921562, "GC_LATITUDE": 43.72425819 }, "geometry": { "type": "Point", "coordinates": [ -79.48921562, 43.72425819 ] } },
{ "type": "Feature", "properties": { "ID": 305542, "ADDRESS_OR_INTERSECTION": "1115 Wilson Ave", "POSTAL_CODE": "M3M 1H2", "GC_LONGITUDE": -79.48297285, "GC_LATITUDE": 43.72620905 }, "geometry": { "type": "Point", "coordinates": [ -79.48297285, 43.72620905 ] } },
{ "type": "Feature", "properties": { "ID": 305548, "ADDRESS_OR_INTERSECTION": "30 The Queensway", "POSTAL_CODE": "M6R 1B5", "GC_LONGITUDE": -79.450101, "GC_LATITUDE": 43.63935849 }, "geometry": { "type": "Point", "coordinates": [ -79.450101, 43.63935849 ] } },
{ "type": "Feature", "properties": { "ID": 305552, "ADDRESS_OR_INTERSECTION": "1901 Yonge St", "POSTAL_CODE": "M4S 1Y6", "GC_LONGITUDE": -79.39625279000001, "GC_LATITUDE": 43.69813094 }, "geometry": { "type": "Point", "coordinates": [ -79.39625279, 43.69813094 ] } },
{ "type": "Feature", "properties": { "ID": 305555, "ADDRESS_OR_INTERSECTION": "15 Roncesvalles Ave", "POSTAL_CODE": "M6R 2K2", "GC_LONGITUDE": -79.44597895, "GC_LATITUDE": 43.639355 }, "geometry": { "type": "Point", "coordinates": [ -79.44597895, 43.639355 ] } },
{ "type": "Feature", "properties": { "ID": 305560, "ADDRESS_OR_INTERSECTION": "135 Queens's Plate Dr", "POSTAL_CODE": "M9W 6V1", "GC_LONGITUDE": -79.591922, "GC_LATITUDE": 43.716847 }, "geometry": { "type": "Point", "coordinates": [ -79.591922, 43.716847 ] } },
{ "type": "Feature", "properties": { "ID": 305611, "ADDRESS_OR_INTERSECTION": "250 College St", "POSTAL_CODE": "M5T 1R8", "GC_LONGITUDE": -79.39911766, "GC_LATITUDE": 43.65858395 }, "geometry": { "type": "Point", "coordinates": [ -79.39911766, 43.65858395 ] } },
{ "type": "Feature", "properties": { "ID": 305612, "ADDRESS_OR_INTERSECTION": "1001 Queen St W", "POSTAL_CODE": "M6J 1H4", "GC_LONGITUDE": -79.41808797, "GC_LATITUDE": 43.64403339 }, "geometry": { "type": "Point", "coordinates": [ -79.41808797, 43.64403339 ] } },
{ "type": "Feature", "properties": { "ID": 305626, "ADDRESS_OR_INTERSECTION": "550 University Ave", "POSTAL_CODE": "M5G 2A2", "GC_LONGITUDE": -79.38995787, "GC_LATITUDE": 43.6566702 }, "geometry": { "type": "Point", "coordinates": [ -79.38995787, 43.6566702 ] } },
{ "type": "Feature", "properties": { "ID": 305627, "ADDRESS_OR_INTERSECTION": "130 Dunn Ave", "POSTAL_CODE": "M6K 2R7", "GC_LONGITUDE": -79.43308635, "GC_LATITUDE": 43.63500813 }, "geometry": { "type": "Point", "coordinates": [ -79.43308635, 43.63500813 ] } },
{ "type": "Feature", "properties": { "ID": 305628, "ADDRESS_OR_INTERSECTION": "520 Sutherland Dr", "POSTAL_CODE": "M4G 3V9", "GC_LONGITUDE": -79.36971161, "GC_LATITUDE": 43.71848939 }, "geometry": { "type": "Point", "coordinates": [ -79.36971161, 43.71848939 ] } },
{ "type": "Feature", "properties": { "ID": 305629, "ADDRESS_OR_INTERSECTION": "399 Bathurst St", "POSTAL_CODE": "M5T 2S8", "GC_LONGITUDE": -79.40568848, "GC_LATITUDE": 43.65309479 }, "geometry": { "type": "Point", "coordinates": [ -79.40568848, 43.65309479 ] } },
{ "type": "Feature", "properties": { "ID": 305630, "ADDRESS_OR_INTERSECTION": "200 Elizabeth St", "POSTAL_CODE": "M5G 2C4", "GC_LONGITUDE": -79.38724521, "GC_LATITUDE": 43.65922378 }, "geometry": { "type": "Point", "coordinates": [ -79.38724521, 43.65922378 ] } },
{ "type": "Feature", "properties": { "ID": 305631, "ADDRESS_OR_INTERSECTION": "610 University Ave", "POSTAL_CODE": "M5G 2M9", "GC_LONGITUDE": -79.39040828, "GC_LATITUDE": 43.65812981 }, "geometry": { "type": "Point", "coordinates": [ -79.39040828, 43.65812981 ] } },
{ "type": "Feature", "properties": { "ID": 305635, "ADDRESS_OR_INTERSECTION": "199 Church St", "POSTAL_CODE": "M5B 1Y7", "GC_LONGITUDE": -79.3764973, "GC_LATITUDE": 43.65570305 }, "geometry": { "type": "Point", "coordinates": [ -79.3764973, 43.65570305 ] } },
{ "type": "Feature", "properties": { "ID": 305642, "ADDRESS_OR_INTERSECTION": "650 Church St", "POSTAL_CODE": "M4Y 2G5", "GC_LONGITUDE": -79.38320166, "GC_LATITUDE": 43.67032598 }, "geometry": { "type": "Point", "coordinates": [ -79.38320166, 43.67032598 ] } },
{ "type": "Feature", "properties": { "ID": 305648, "ADDRESS_OR_INTERSECTION": "3016 Dundas St W ", "POSTAL_CODE": "M6P 1Z3", "GC_LONGITUDE": -79.46994823, "GC_LATITUDE": 43.66566863 }, "geometry": { "type": "Point", "coordinates": [ -79.46994823, 43.66566863 ] } },
{ "type": "Feature", "properties": { "ID": 305656, "ADDRESS_OR_INTERSECTION": "1223 St Clair Ave W", "POSTAL_CODE": "M6E 1B5", "GC_LONGITUDE": -79.44499636, "GC_LATITUDE": 43.67724414 }, "geometry": { "type": "Point", "coordinates": [ -79.44499636, 43.67724414 ] } },
{ "type": "Feature", "properties": { "ID": 305744, "ADDRESS_OR_INTERSECTION": "76 Grenville St", "POSTAL_CODE": "M5S 1B2", "GC_LONGITUDE": -79.38737861, "GC_LATITUDE": 43.66151718 }, "geometry": { "type": "Point", "coordinates": [ -79.38737861, 43.66151718 ] } },
{ "type": "Feature", "properties": { "ID": 305754, "ADDRESS_OR_INTERSECTION": "521 Victoria Park Ave", "POSTAL_CODE": "M4C 5H1", "GC_LONGITUDE": -79.28762151, "GC_LATITUDE": 43.69007357 }, "geometry": { "type": "Point", "coordinates": [ -79.28762151, 43.69007357 ] } },
{ "type": "Feature", "properties": { "ID": 305756, "ADDRESS_OR_INTERSECTION": "796 Queen St E", "POSTAL_CODE": "M4M 1H4", "GC_LONGITUDE": -79.3469817, "GC_LATITUDE": 43.65984319 }, "geometry": { "type": "Point", "coordinates": [ -79.3469817, 43.65984319 ] } },
{ "type": "Feature", "properties": { "ID": 305763, "ADDRESS_OR_INTERSECTION": "523 St Clair Ave W", "POSTAL_CODE": "M6C 1A1", "GC_LONGITUDE": -79.41922714, "GC_LATITUDE": 43.68275595 }, "geometry": { "type": "Point", "coordinates": [ -79.41922714, 43.68275595 ] } },
{ "type": "Feature", "properties": { "ID": 305783, "ADDRESS_OR_INTERSECTION": "43 Wellesley St E ", "POSTAL_CODE": "M4Y 1H1", "GC_LONGITUDE": -79.38236404, "GC_LATITUDE": 43.66505072 }, "geometry": { "type": "Point", "coordinates": [ -79.38236404, 43.66505072 ] } },
{ "type": "Feature", "properties": { "ID": 305784, "ADDRESS_OR_INTERSECTION": "2075 Bayview Ave", "POSTAL_CODE": "M4N 3M5", "GC_LONGITUDE": -79.37787537, "GC_LATITUDE": 43.72193765 }, "geometry": { "type": "Point", "coordinates": [ -79.37787537, 43.72193765 ] } },
{ "type": "Feature", "properties": { "ID": 305787, "ADDRESS_OR_INTERSECTION": "625 Runnymede Rd", "POSTAL_CODE": "M6S 3A3", "GC_LONGITUDE": -79.4811296, "GC_LATITUDE": 43.66418224 }, "geometry": { "type": "Point", "coordinates": [ -79.4811296, 43.66418224 ] } },
{ "type": "Feature", "properties": { "ID": 305810, "ADDRESS_OR_INTERSECTION": "235 Danforth Ave", "POSTAL_CODE": "M4K 1N2", "GC_LONGITUDE": -79.35541069, "GC_LATITUDE": 43.67661645 }, "geometry": { "type": "Point", "coordinates": [ -79.35541069, 43.67661645 ] } },
{ "type": "Feature", "properties": { "ID": 305811, "ADDRESS_OR_INTERSECTION": "1 Bridgepoint Dr", "POSTAL_CODE": "M4M 2B5", "GC_LONGITUDE": -79.35521667, "GC_LATITUDE": 43.66617123 }, "geometry": { "type": "Point", "coordinates": [ -79.35521667, 43.66617123 ] } },
{ "type": "Feature", "properties": { "ID": 305812, "ADDRESS_OR_INTERSECTION": "600 University Ave", "POSTAL_CODE": "M5G 1X5", "GC_LONGITUDE": -79.3904451, "GC_LATITUDE": 43.65753641 }, "geometry": { "type": "Point", "coordinates": [ -79.3904451, 43.65753641 ] } },
{ "type": "Feature", "properties": { "ID": 305876, "ADDRESS_OR_INTERSECTION": "2163 Danforth Ave", "POSTAL_CODE": "M4C 1K2", "GC_LONGITUDE": -79.31076213, "GC_LATITUDE": 43.68595131 }, "geometry": { "type": "Point", "coordinates": [ -79.31076213, 43.68595131 ] } },
{ "type": "Feature", "properties": { "ID": 305878, "ADDRESS_OR_INTERSECTION": "1169 Dundas St W", "POSTAL_CODE": "M6J 1X3", "GC_LONGITUDE": -79.42167849000001, "GC_LATITUDE": 43.64921414 }, "geometry": { "type": "Point", "coordinates": [ -79.42167849, 43.64921414 ] } },
{ "type": "Feature", "properties": { "ID": 305889, "ADDRESS_OR_INTERSECTION": "300 B Spadina Ave", "POSTAL_CODE": "M5T 2E7", "GC_LONGITUDE": -79.398597, "GC_LATITUDE": 43.653225 }, "geometry": { "type": "Point", "coordinates": [ -79.398597, 43.653225 ] } },
{ "type": "Feature", "properties": { "ID": 305897, "ADDRESS_OR_INTERSECTION": "1640 Bloor St W", "POSTAL_CODE": "M6P 1A7", "GC_LONGITUDE": -79.45648976, "GC_LATITUDE": 43.65569199 }, "geometry": { "type": "Point", "coordinates": [ -79.45648976, 43.65569199 ] } },
{ "type": "Feature", "properties": { "ID": 305906, "ADDRESS_OR_INTERSECTION": "5115 Dundas St W", "POSTAL_CODE": "M9A 0B5", "GC_LONGITUDE": -79.53232245, "GC_LATITUDE": 43.6444585 }, "geometry": { "type": "Point", "coordinates": [ -79.53232245, 43.6444585 ] } },
{ "type": "Feature", "properties": { "ID": 305907, "ADDRESS_OR_INTERSECTION": "4972 Dundas St W", "POSTAL_CODE": "M9A 1B7", "GC_LONGITUDE": -79.53026381, "GC_LATITUDE": 43.64746815 }, "geometry": { "type": "Point", "coordinates": [ -79.53026381, 43.64746815 ] } },
{ "type": "Feature", "properties": { "ID": 305936, "ADDRESS_OR_INTERSECTION": "2399 Yonge St", "POSTAL_CODE": "M4P 2E7", "GC_LONGITUDE": -79.398698, "GC_LATITUDE": 43.710076 }, "geometry": { "type": "Point", "coordinates": [ -79.398698, 43.710076 ] } },
{ "type": "Feature", "properties": { "ID": 305943, "ADDRESS_OR_INTERSECTION": "275 Jarvis St", "POSTAL_CODE": "M5B 2C2", "GC_LONGITUDE": -79.37472278, "GC_LATITUDE": 43.65825351 }, "geometry": { "type": "Point", "coordinates": [ -79.37472278, 43.65825351 ] } },
{ "type": "Feature", "properties": { "ID": 305952, "ADDRESS_OR_INTERSECTION": "149 Roncesvalles Ave", "POSTAL_CODE": "M6R 2L3", "GC_LONGITUDE": -79.44789254, "GC_LATITUDE": 43.64383868 }, "geometry": { "type": "Point", "coordinates": [ -79.44789254, 43.64383868 ] } },
{ "type": "Feature", "properties": { "ID": 305963, "ADDRESS_OR_INTERSECTION": "137 Roncesvalles Ave", "POSTAL_CODE": "M6R 2L2", "GC_LONGITUDE": -79.44741597, "GC_LATITUDE": 43.64338363 }, "geometry": { "type": "Point", "coordinates": [ -79.44741597, 43.64338363 ] } },
{ "type": "Feature", "properties": { "ID": 305977, "ADDRESS_OR_INTERSECTION": "1408 Queen St W", "POSTAL_CODE": "M6K 1L9", "GC_LONGITUDE": -79.43458675, "GC_LATITUDE": 43.64128516 }, "geometry": { "type": "Point", "coordinates": [ -79.43458675, 43.64128516 ] } },
{ "type": "Feature", "properties": { "ID": 305978, "ADDRESS_OR_INTERSECTION": "401 Yonge St", "POSTAL_CODE": "M5B 1S9", "GC_LONGITUDE": -79.38187793, "GC_LATITUDE": 43.65939684 }, "geometry": { "type": "Point", "coordinates": [ -79.38187793, 43.65939684 ] } },
{ "type": "Feature", "properties": { "ID": 305979, "ADDRESS_OR_INTERSECTION": "1473 Queen St W", "POSTAL_CODE": "M6R 1A1", "GC_LONGITUDE": -79.43904248, "GC_LATITUDE": 43.63991205 }, "geometry": { "type": "Point", "coordinates": [ -79.43904248, 43.63991205 ] } },
{ "type": "Feature", "properties": { "ID": 305994, "ADDRESS_OR_INTERSECTION": "116 Glen Manor Dr", "POSTAL_CODE": "M4E 2X2", "GC_LONGITUDE": -79.29268722, "GC_LATITUDE": 43.67135331 }, "geometry": { "type": "Point", "coordinates": [ -79.29268722, 43.67135331 ] } },
{ "type": "Feature", "properties": { "ID": 305995, "ADDRESS_OR_INTERSECTION": "351 Queen St E", "POSTAL_CODE": "M5A 1T2", "GC_LONGITUDE": -79.36410727000001, "GC_LATITUDE": 43.65548145 }, "geometry": { "type": "Point", "coordinates": [ -79.36410727, 43.65548145 ] } },
{ "type": "Feature", "properties": { "ID": 305997, "ADDRESS_OR_INTERSECTION": "280 Spadina Ave", "POSTAL_CODE": "M5T 3A5", "GC_LONGITUDE": -79.39858542, "GC_LATITUDE": 43.65252442 }, "geometry": { "type": "Point", "coordinates": [ -79.39858542, 43.65252442 ] } },
{ "type": "Feature", "properties": { "ID": 306002, "ADDRESS_OR_INTERSECTION": "700 Bay St", "POSTAL_CODE": "M5G 1Z6", "GC_LONGITUDE": -79.38506644, "GC_LATITUDE": 43.65822397 }, "geometry": { "type": "Point", "coordinates": [ -79.38506644, 43.65822397 ] } },
{ "type": "Feature", "properties": { "ID": 306003, "ADDRESS_OR_INTERSECTION": "620A Bloor Street W", "POSTAL_CODE": "M6G 1K7", "GC_LONGITUDE": -79.41419218, "GC_LATITUDE": 43.66474353 }, "geometry": { "type": "Point", "coordinates": [ -79.41419218, 43.66474353 ] } },
{ "type": "Feature", "properties": { "ID": 306009, "ADDRESS_OR_INTERSECTION": "481 Bloor St W", "POSTAL_CODE": "M5S 1X9", "GC_LONGITUDE": -79.40712045, "GC_LATITUDE": 43.66576237 }, "geometry": { "type": "Point", "coordinates": [ -79.40712045, 43.66576237 ] } },
{ "type": "Feature", "properties": { "ID": 306027, "ADDRESS_OR_INTERSECTION": "119 Isabella St", "POSTAL_CODE": "M4Y 1P2", "GC_LONGITUDE": -79.37827545, "GC_LATITUDE": 43.66892503 }, "geometry": { "type": "Point", "coordinates": [ -79.37827545, 43.66892503 ] } },
{ "type": "Feature", "properties": { "ID": 306055, "ADDRESS_OR_INTERSECTION": "1188 Danforth Ave", "POSTAL_CODE": "M4J 1M3", "GC_LONGITUDE": -79.3325506, "GC_LATITUDE": 43.6815926 }, "geometry": { "type": "Point", "coordinates": [ -79.3325506, 43.6815926 ] } },
{ "type": "Feature", "properties": { "ID": 306063, "ADDRESS_OR_INTERSECTION": "2 St Clair Ave E", "POSTAL_CODE": "M4T 2T5", "GC_LONGITUDE": -79.39384854, "GC_LATITUDE": 43.68836503 }, "geometry": { "type": "Point", "coordinates": [ -79.39384854, 43.68836503 ] } },
{ "type": "Feature", "properties": { "ID": 306073, "ADDRESS_OR_INTERSECTION": "2867 Jane St", "POSTAL_CODE": "M3N 2J5", "GC_LONGITUDE": -79.51600246, "GC_LATITUDE": 43.75166009 }, "geometry": { "type": "Point", "coordinates": [ -79.51600246, 43.75166009 ] } },
{ "type": "Feature", "properties": { "ID": 306083, "ADDRESS_OR_INTERSECTION": "247 Coxwell Ave", "POSTAL_CODE": "M4L 3B4", "GC_LONGITUDE": -79.31897897, "GC_LATITUDE": 43.67261244 }, "geometry": { "type": "Point", "coordinates": [ -79.31897897, 43.67261244 ] } },
{ "type": "Feature", "properties": { "ID": 306092, "ADDRESS_OR_INTERSECTION": "1892 Davenport Rd", "POSTAL_CODE": "M6N 1B7", "GC_LONGITUDE": -79.45466145, "GC_LATITUDE": 43.67088747 }, "geometry": { "type": "Point", "coordinates": [ -79.45466145, 43.67088747 ] } },
{ "type": "Feature", "properties": { "ID": 306104, "ADDRESS_OR_INTERSECTION": "1466 Bathurst St", "POSTAL_CODE": "M5R 3S3", "GC_LONGITUDE": -79.41835028, "GC_LATITUDE": 43.68278015 }, "geometry": { "type": "Point", "coordinates": [ -79.41835028, 43.68278015 ] } },
{ "type": "Feature", "properties": { "ID": 306107, "ADDRESS_OR_INTERSECTION": "965 Jane St", "POSTAL_CODE": "M6N 4E1", "GC_LONGITUDE": -79.49716854, "GC_LATITUDE": 43.6808179 }, "geometry": { "type": "Point", "coordinates": [ -79.49716854, 43.6808179 ] } },
{ "type": "Feature", "properties": { "ID": 306121, "ADDRESS_OR_INTERSECTION": "4789 Yonge St", "POSTAL_CODE": "M2N 0G3", "GC_LONGITUDE": -79.41016374, "GC_LATITUDE": 43.76134607 }, "geometry": { "type": "Point", "coordinates": [ -79.41016374, 43.76134607 ] } },
{ "type": "Feature", "properties": { "ID": 306126, "ADDRESS_OR_INTERSECTION": "275 Dundas St W", "POSTAL_CODE": "M5T 1G1", "GC_LONGITUDE": -79.39045536, "GC_LATITUDE": 43.65430455 }, "geometry": { "type": "Point", "coordinates": [ -79.39045536, 43.65430455 ] } },
{ "type": "Feature", "properties": { "ID": 306148, "ADDRESS_OR_INTERSECTION": "557 Church St", "POSTAL_CODE": "M4Y 2E2", "GC_LONGITUDE": -79.38125154, "GC_LATITUDE": 43.66722285 }, "geometry": { "type": "Point", "coordinates": [ -79.38125154, 43.66722285 ] } },
{ "type": "Feature", "properties": { "ID": 306150, "ADDRESS_OR_INTERSECTION": "837 Danforth Ave", "POSTAL_CODE": "M4J 1L2", "GC_LONGITUDE": -79.34060358000001, "GC_LATITUDE": 43.67948166 }, "geometry": { "type": "Point", "coordinates": [ -79.34060358, 43.67948166 ] } },
{ "type": "Feature", "properties": { "ID": 306163, "ADDRESS_OR_INTERSECTION": "418 Eglinton Ave W", "POSTAL_CODE": "M5N 1A2", "GC_LONGITUDE": -79.4110623, "GC_LATITUDE": 43.70428571 }, "geometry": { "type": "Point", "coordinates": [ -79.4110623, 43.70428571 ] } },
{ "type": "Feature", "properties": { "ID": 306222, "ADDRESS_OR_INTERSECTION": "1062 Bloor St W", "POSTAL_CODE": "M6H 1M3", "GC_LONGITUDE": -79.43283394, "GC_LATITUDE": 43.6606846 }, "geometry": { "type": "Point", "coordinates": [ -79.43283394, 43.6606846 ] } },
{ "type": "Feature", "properties": { "ID": 306227, "ADDRESS_OR_INTERSECTION": "1860 Bayview Ave", "POSTAL_CODE": "M4G 0C3", "GC_LONGITUDE": -79.37793732, "GC_LATITUDE": 43.71415446 }, "geometry": { "type": "Point", "coordinates": [ -79.37793732, 43.71415446 ] } },
{ "type": "Feature", "properties": { "ID": 306230, "ADDRESS_OR_INTERSECTION": "200 Spadina Ave", "POSTAL_CODE": "M5T 2C2", "GC_LONGITUDE": -79.39733715, "GC_LATITUDE": 43.65030844 }, "geometry": { "type": "Point", "coordinates": [ -79.39733715, 43.65030844 ] } },
{ "type": "Feature", "properties": { "ID": 306254, "ADDRESS_OR_INTERSECTION": "2798 Dundas St W", "POSTAL_CODE": "M6P 1Y5", "GC_LONGITUDE": -79.46272553, "GC_LATITUDE": 43.66555763 }, "geometry": { "type": "Point", "coordinates": [ -79.46272553, 43.66555763 ] } },
{ "type": "Feature", "properties": { "ID": 306333, "ADDRESS_OR_INTERSECTION": "411 Jane St", "POSTAL_CODE": "M6S 3Z6", "GC_LONGITUDE": -79.4879254, "GC_LATITUDE": 43.65875137 }, "geometry": { "type": "Point", "coordinates": [ -79.4879254, 43.65875137 ] } },
{ "type": "Feature", "properties": { "ID": 306354, "ADDRESS_OR_INTERSECTION": "1400 Dupont St", "POSTAL_CODE": "M6H 2B2", "GC_LONGITUDE": -79.44748997000001, "GC_LATITUDE": 43.6667272 }, "geometry": { "type": "Point", "coordinates": [ -79.44748997, 43.6667272 ] } },
{ "type": "Feature", "properties": { "ID": 306362, "ADDRESS_OR_INTERSECTION": "1585 Markham Rd", "POSTAL_CODE": "M1B 2W1", "GC_LONGITUDE": -79.23767444000001, "GC_LATITUDE": 43.79223961 }, "geometry": { "type": "Point", "coordinates": [ -79.23767444, 43.79223961 ] } },
{ "type": "Feature", "properties": { "ID": 306374, "ADDRESS_OR_INTERSECTION": "285 Spadina Ave", "POSTAL_CODE": "M5T 2E6", "GC_LONGITUDE": -79.39761822, "GC_LATITUDE": 43.65323345 }, "geometry": { "type": "Point", "coordinates": [ -79.39761822, 43.65323345 ] } },
{ "type": "Feature", "properties": { "ID": 306380, "ADDRESS_OR_INTERSECTION": "1130 Bloor St W", "POSTAL_CODE": "M6H 1M8", "GC_LONGITUDE": -79.43509005, "GC_LATITUDE": 43.66011577 }, "geometry": { "type": "Point", "coordinates": [ -79.43509005, 43.66011577 ] } },
{ "type": "Feature", "properties": { "ID": 306385, "ADDRESS_OR_INTERSECTION": "149 Augusta Ave", "POSTAL_CODE": "M5T 2L4", "GC_LONGITUDE": -79.40108579, "GC_LATITUDE": 43.65266912 }, "geometry": { "type": "Point", "coordinates": [ -79.40108579, 43.65266912 ] } },
{ "type": "Feature", "properties": { "ID": 306397, "ADDRESS_OR_INTERSECTION": "193 College St", "POSTAL_CODE": "M5T 1P9", "GC_LONGITUDE": -79.394911, "GC_LATITUDE": 43.65867338 }, "geometry": { "type": "Point", "coordinates": [ -79.394911, 43.65867338 ] } },
{ "type": "Feature", "properties": { "ID": 306401, "ADDRESS_OR_INTERSECTION": "85 Church St", "POSTAL_CODE": "M5C 2G2", "GC_LONGITUDE": -79.37493291, "GC_LATITUDE": 43.65170903 }, "geometry": { "type": "Point", "coordinates": [ -79.37493291, 43.65170903 ] } },
{ "type": "Feature", "properties": { "ID": 306439, "ADDRESS_OR_INTERSECTION": "1000 Bay St", "POSTAL_CODE": "M5S 3A8", "GC_LONGITUDE": -79.38791489, "GC_LATITUDE": 43.66540596 }, "geometry": { "type": "Point", "coordinates": [ -79.38791489, 43.66540596 ] } },
{ "type": "Feature", "properties": { "ID": 306454, "ADDRESS_OR_INTERSECTION": "1674 Dufferin St", "POSTAL_CODE": "M6H 3M1", "GC_LONGITUDE": -79.44325242, "GC_LATITUDE": 43.67748638 }, "geometry": { "type": "Point", "coordinates": [ -79.44325242, 43.67748638 ] } },
{ "type": "Feature", "properties": { "ID": 306458, "ADDRESS_OR_INTERSECTION": "225 Wellesley St E", "POSTAL_CODE": "M4X 1X8", "GC_LONGITUDE": -79.37273841, "GC_LATITUDE": 43.66732467 }, "geometry": { "type": "Point", "coordinates": [ -79.37273841, 43.66732467 ] } },
{ "type": "Feature", "properties": { "ID": 306487, "ADDRESS_OR_INTERSECTION": "2898 Lake Shore Blvd W", "POSTAL_CODE": "M8V 1J2", "GC_LONGITUDE": -79.504049, "GC_LATITUDE": 43.60121666 }, "geometry": { "type": "Point", "coordinates": [ -79.504049, 43.60121666 ] } },
{ "type": "Feature", "properties": { "ID": 306491, "ADDRESS_OR_INTERSECTION": "1980 St Clair Ave W", "POSTAL_CODE": "M6N 0A3", "GC_LONGITUDE": -79.47061822000001, "GC_LATITUDE": 43.67220452 }, "geometry": { "type": "Point", "coordinates": [ -79.47061822, 43.67220452 ] } },
{ "type": "Feature", "properties": { "ID": 306510, "ADDRESS_OR_INTERSECTION": "2075 Bayview Ave", "POSTAL_CODE": "M4N 3M5", "GC_LONGITUDE": -79.37787537, "GC_LATITUDE": 43.72193765 }, "geometry": { "type": "Point", "coordinates": [ -79.37787537, 43.72193765 ] } },
{ "type": "Feature", "properties": { "ID": 306511, "ADDRESS_OR_INTERSECTION": "2075 Bayview Ave", "POSTAL_CODE": "M4N 3M5", "GC_LONGITUDE": -79.37787537, "GC_LATITUDE": 43.72193765 }, "geometry": { "type": "Point", "coordinates": [ -79.37787537, 43.72193765 ] } },
{ "type": "Feature", "properties": { "ID": 306523, "ADDRESS_OR_INTERSECTION": "849 Bloor St W", "POSTAL_CODE": "M6G 1M3", "GC_LONGITUDE": -79.42370445, "GC_LATITUDE": 43.66221359 }, "geometry": { "type": "Point", "coordinates": [ -79.42370445, 43.66221359 ] } },
{ "type": "Feature", "properties": { "ID": 306530, "ADDRESS_OR_INTERSECTION": "3537 Bathurst St", "POSTAL_CODE": "M6A 2C7", "GC_LONGITUDE": -79.43183397, "GC_LATITUDE": 43.72985147 }, "geometry": { "type": "Point", "coordinates": [ -79.43183397, 43.72985147 ] } },
{ "type": "Feature", "properties": { "ID": 306540, "ADDRESS_OR_INTERSECTION": "26 Dalhousie St", "POSTAL_CODE": "M5B 2A5", "GC_LONGITUDE": -79.3756738, "GC_LATITUDE": 43.65411902 }, "geometry": { "type": "Point", "coordinates": [ -79.3756738, 43.65411902 ] } },
{ "type": "Feature", "properties": { "ID": 306587, "ADDRESS_OR_INTERSECTION": "2408 Lakeshore Blvd W", "POSTAL_CODE": "M8V 1C4", "GC_LONGITUDE": -79.4891065, "GC_LATITUDE": 43.61480413 }, "geometry": { "type": "Point", "coordinates": [ -79.4891065, 43.61480413 ] } },
{ "type": "Feature", "properties": { "ID": 306593, "ADDRESS_OR_INTERSECTION": "572 Parliament St", "POSTAL_CODE": "M4X 1P8", "GC_LONGITUDE": -79.36963515, "GC_LATITUDE": 43.66752374 }, "geometry": { "type": "Point", "coordinates": [ -79.36963515, 43.66752374 ] } },
{ "type": "Feature", "properties": { "ID": 306612, "ADDRESS_OR_INTERSECTION": "1177 St Clair Ave W", "POSTAL_CODE": "M6E 1B5", "GC_LONGITUDE": -79.44345523, "GC_LATITUDE": 43.67762805 }, "geometry": { "type": "Point", "coordinates": [ -79.44345523, 43.67762805 ] } },
{ "type": "Feature", "properties": { "ID": 306613, "ADDRESS_OR_INTERSECTION": "550 Front St W ", "POSTAL_CODE": "M5V 3N5", "GC_LONGITUDE": -79.39957852000001, "GC_LATITUDE": 43.641419 }, "geometry": { "type": "Point", "coordinates": [ -79.39957852, 43.641419 ] } },
{ "type": "Feature", "properties": { "ID": 306657, "ADDRESS_OR_INTERSECTION": "697 St Clair Ave W ", "POSTAL_CODE": "M6C 1B2", "GC_LONGITUDE": -79.42617949, "GC_LATITUDE": 43.68138466 }, "geometry": { "type": "Point", "coordinates": [ -79.42617949, 43.68138466 ] } },
{ "type": "Feature", "properties": { "ID": 306743, "ADDRESS_OR_INTERSECTION": "812 O'Connor Dr", "POSTAL_CODE": "M4B 2S9", "GC_LONGITUDE": -79.3128398, "GC_LATITUDE": 43.70596471 }, "geometry": { "type": "Point", "coordinates": [ -79.3128398, 43.70596471 ] } },
{ "type": "Feature", "properties": { "ID": 306759, "ADDRESS_OR_INTERSECTION": "461 Church St", "POSTAL_CODE": "M4Y 2C5", "GC_LONGITUDE": -79.3799896, "GC_LATITUDE": 43.66426421 }, "geometry": { "type": "Point", "coordinates": [ -79.3799896, 43.66426421 ] } },
{ "type": "Feature", "properties": { "ID": 306832, "ADDRESS_OR_INTERSECTION": "1176 St Clair Ave W", "POSTAL_CODE": "M6E 1B4", "GC_LONGITUDE": -79.44372733, "GC_LATITUDE": 43.67809792 }, "geometry": { "type": "Point", "coordinates": [ -79.44372733, 43.67809792 ] } },
{ "type": "Feature", "properties": { "ID": 306846, "ADDRESS_OR_INTERSECTION": "939 O'Connor Dr", "POSTAL_CODE": "M4B 2S7", "GC_LONGITUDE": -79.31064103, "GC_LATITUDE": 43.7079113 }, "geometry": { "type": "Point", "coordinates": [ -79.31064103, 43.7079113 ] } },
{ "type": "Feature", "properties": { "ID": 306858, "ADDRESS_OR_INTERSECTION": "2 Bloor St W", "POSTAL_CODE": "M4W 3E2", "GC_LONGITUDE": -79.38723329, "GC_LATITUDE": 43.67040902 }, "geometry": { "type": "Point", "coordinates": [ -79.38723329, 43.67040902 ] } }
]
}
